{"type": "FeatureCollection", "features": [{"type": "Feature", "properties": {"terrai_cod": 7901, "terrai_nom": "Caiçara/Ilha de São Pedro", "etnia_nome": "Xocó", "municipio_": "Porto da Folha", "uf_sigla": "SE", "superficie": 4316.7768}, "geometry": {"type": "Polygon", "coordinates": [[[-37.39334, -9.78178], [-37.38813, -9.78363], [-37.38524, -9.78267], [-37.38227, -9.78315], [-37.38139, -9.78443], [-37.37417, -9.78756], [-37.36662, -9.78812], [-37.35932, -9.78997], [-37.35651, -9.79045], [-37.34985, -9.79414], [-37.34648, -9.79904], [-37.34504, -9.80224], [-37.34213, -9.80503], [-37.37494, -9.8522], [-37.42891, -9.82928], [-37.41419, -9.80639], [-37.3983, -9.78075], [-37.39671, -9.7817], [-37.39334, -9.78178]]]}}, {"type": "Feature", "properties": {"terrai_cod": 32301, "terrai_nom": "Pankararé", "etnia_nome": "Pankararé", "municipio_": "Glória,Paulo Afonso,Rodelas", "uf_sigla": "BA", "superficie": 29597.3322}, "geometry": {"type": "Polygon", "coordinates": [[[-38.60108, -9.55196], [-38.68262, -9.55244], [-38.68257, -9.49588], [-38.68214, -9.4218], [-38.68218, -9.39416], [-38.64478, -9.39135], [-38.64323, -9.41111], [-38.56878, -9.39018], [-38.57005, -9.41262], [-38.58416, -9.4215], [-38.59695, -9.43417], [-38.59986, -9.43916], [-38.61093, -9.43999], [-38.61729, -9.44607], [-38.62577, -9.46406], [-38.63068, -9.49232], [-38.63231, -9.517], [-38.63499, -9.52429], [-38.63989, -9.53042], [-38.5972, -9.5186], [-38.60108, -9.55196]]]}}, {"type": "Feature", "properties": {"terrai_cod": 6901, "terrai_nom": "Brejo do Burgo", "etnia_nome": "Pankararé", "municipio_": "Glória,Paulo Afonso,Rodelas", "uf_sigla": "BA", "superficie": 17924.8496}, "geometry": {"type": "Polygon", "coordinates": [[[-38.64478, -9.39135], [-38.62, -9.35878], [-38.60326, -9.33427], [-38.58077, -9.27331], [-38.57094, -9.27509], [-38.57356, -9.2905], [-38.57223, -9.29774], [-38.56723, -9.30448], [-38.56642, -9.30923], [-38.56146, -9.31772], [-38.56908, -9.33963], [-38.56886, -9.34325], [-38.56631, -9.34684], [-38.56878, -9.39018], [-38.64323, -9.41111], [-38.64478, -9.39135]]]}}, {"type": "Feature", "properties": {"terrai_cod": 19402, "terrai_nom": "Geripancó", "etnia_nome": "Jeripancó", "municipio_": "Pariconha", "uf_sigla": "AL", "superficie": 200.0}, "geometry": {"type": "Polygon", "coordinates": [[[-38.04469, -9.22406], [-38.04458, -9.224], [-38.0415, -9.22413], [-38.04177, -9.22726], [-38.03905, -9.22716], [-38.03574, -9.22508], [-38.03366, -9.22338], [-38.03023, -9.22259], [-38.03046, -9.22221], [-38.02705, -9.22086], [-38.02681, -9.22235], [-38.02923, -9.22287], [-38.02896, -9.22328], [-38.0308, -9.22414], [-38.0342, -9.22706], [-38.03349, -9.22899], [-38.03238, -9.23017], [-38.01452, -9.22351], [-38.01358, -9.22493], [-38.01409, -9.22681], [-38.01694, -9.22681], [-38.02111, -9.22788], [-38.02504, -9.22932], [-38.03029, -9.23196], [-38.03012, -9.23238], [-38.03053, -9.23266], [-38.03074, -9.23217], [-38.038, -9.23586], [-38.03864, -9.23629], [-38.03845, -9.23713], [-38.04347, -9.23663], [-38.04469, -9.22406]]]}}, {"type": "Feature", "properties": {"terrai_cod": 13101, "terrai_nom": "Fulni-ô", "etnia_nome": "Fulni-ô", "municipio_": "Itaíba,Águas Belas", "uf_sigla": "PE", "superficie": 11505.71}, "geometry": {"type": "Polygon", "coordinates": [[[-37.16813, -9.15147], [-37.15286, -9.05619], [-37.05591, -9.07174], [-37.07147, -9.1673], [-37.16813, -9.15147]]]}}, {"type": "Feature", "properties": {"terrai_cod": 12601, "terrai_nom": "Tuxá de Inajá", "etnia_nome": "Tuxá", "municipio_": "Inajá", "uf_sigla": "PE", "superficie": 140.0}, "geometry": {"type": "Polygon", "coordinates": [[[-37.70736, -8.76666], [-37.7053, -8.76289], [-37.68407, -8.78214], [-37.68678, -8.78399], [-37.68772, -8.78444], [-37.70736, -8.76666]]]}}, {"type": "Feature", "properties": {"terrai_cod": 73774, "terrai_nom": "Kariri de Serra Grande", "etnia_nome": "Kariri", "municipio_": "Queimada Nova", "uf_sigla": "PI", "superficie": 2114.6769}, "geometry": {"type": "MultiPolygon", "coordinates": [[[[-41.33722, -8.67493], [-41.33831, -8.67659], [-41.32973, -8.6933], [-41.32145, -8.69802], [-41.32132, -8.69908], [-41.32958, -8.70257], [-41.33256, -8.7043], [-41.33689, -8.70833], [-41.34542, -8.70987], [-41.36536, -8.70558], [-41.36536, -8.70559], [-41.37446, -8.70539], [-41.37824, -8.70619], [-41.37714, -8.70369], [-41.37761, -8.70347], [-41.37721, -8.70253], [-41.38, -8.7019], [-41.3849, -8.70047], [-41.38466, -8.70029], [-41.38411, -8.69917], [-41.38338, -8.69819], [-41.37801, -8.69272], [-41.37866, -8.69076], [-41.37959, -8.68943], [-41.37965, -8.6891], [-41.37875, -8.68818], [-41.37787, -8.68562], [-41.37849, -8.68419], [-41.37941, -8.68306], [-41.37987, -8.68061], [-41.37968, -8.68015], [-41.37745, -8.67951], [-41.37713, -8.681], [-41.37652, -8.68195], [-41.37435, -8.68309], [-41.37284, -8.68289], [-41.37232, -8.68269], [-41.371, -8.68136], [-41.3706, -8.68023], [-41.37091, -8.67929], [-41.36934, -8.67803], [-41.36768, -8.67496], [-41.3677, -8.67208], [-41.36655, -8.67047], [-41.36599, -8.66586], [-41.36513, -8.66458], [-41.35131, -8.6717], [-41.35031, -8.66959], [-41.34796, -8.66784], [-41.3476, -8.66404], [-41.34813, -8.66244], [-41.33601, -8.66902], [-41.33722, -8.67493]]], [[[-41.37836, -8.70648], [-41.37489, -8.70552], [-41.37842, -8.70661], [-41.37836, -8.70648]]]]}}, {"type": "Feature", "properties": {"terrai_cod": 59201, "terrai_nom": "Tumbalalá", "etnia_nome": "Tumbalalá", "municipio_": "Abaré,Curaçá", "uf_sigla": "BA", "superficie": 44978.0}, "geometry": {"type": "Polygon", "coordinates": [[[-39.35749, -8.54666], [-39.35693, -8.54744], [-39.35943, -8.5465], [-39.35014, -8.55365], [-39.35013, -8.55394], [-39.34982, -8.5543], [-39.34916, -8.55475], [-39.3487, -8.55476], [-39.34758, -8.55562], [-39.34727, -8.55631], [-39.34626, -8.5577], [-39.34583, -8.55805], [-39.34287, -8.55966], [-39.34095, -8.5601], [-39.34, -8.56048], [-39.33941, -8.56056], [-39.33741, -8.56038], [-39.33387, -8.5585], [-39.33234, -8.55829], [-39.32986, -8.55867], [-39.32932, -8.55887], [-39.32825, -8.55963], [-39.32709, -8.56], [-39.31929, -8.56165], [-39.31795, -8.56178], [-39.31649, -8.56149], [-39.31564, -8.56108], [-39.31487, -8.55994], [-39.31437, -8.55965], [-39.31198, -8.55937], [-39.31007, -8.55939], [-39.30871, -8.55979], [-39.30708, -8.55965], [-39.30628, -8.55975], [-39.30577, -8.55994], [-39.30519, -8.56051], [-39.30449, -8.5609], [-39.30116, -8.56154], [-39.29476, -8.56179], [-39.2931, -8.56155], [-39.28887, -8.56314], [-39.28791, -8.56327], [-39.28621, -8.56401], [-39.28174, -8.56919], [-39.27963, -8.57284], [-39.27642, -8.57561], [-39.27525, -8.57764], [-39.27418, -8.58074], [-39.27343, -8.58383], [-39.2728, -8.59374], [-39.27184, -8.59749], [-39.27129, -8.59881], [-39.26828, -8.60381], [-39.26657, -8.60937], [-39.26517, -8.6125], [-39.26412, -8.61378], [-39.26428, -8.61394], [-39.2655, -8.61214], [-39.26469, -8.6139], [-39.26439, -8.61406], [-39.27053, -8.62035], [-39.27317, -8.62022], [-39.27401, -8.6205], [-39.27717, -8.62211], [-39.27794, -8.62179], [-39.27872, -8.62114], [-39.27971, -8.61969], [-39.28036, -8.61921], [-39.28483, -8.61905], [-39.28554, -8.61926], [-39.28644, -8.61981], [-39.29002, -8.6223], [-39.29185, -8.62294], [-39.2947, -8.6235], [-39.29665, -8.62465], [-39.29774, -8.62605], [-39.29832, -8.62769], [-39.2988, -8.63107], [-39.29822, -8.6338], [-39.29815, -8.63486], [-39.29832, -8.63563], [-39.29874, -8.63649], [-39.29979, -8.63805], [-39.30042, -8.63876], [-39.30146, -8.63957], [-39.30369, -8.64036], [-39.3057, -8.64081], [-39.30703, -8.64217], [-39.30897, -8.64308], [-39.31371, -8.64725], [-39.31838, -8.65076], [-39.31918, -8.65181], [-39.32117, -8.65697], [-39.3215, -8.65748], [-39.32393, -8.65912], [-39.32454, -8.65984], [-39.32548, -8.66149], [-39.32581, -8.66236], [-39.32617, -8.66418], [-39.32551, -8.66661], [-39.32552, -8.66992], [-39.32531, -8.6703], [-39.32426, -8.67116], [-39.32306, -8.67561], [-39.32284, -8.67596], [-39.32173, -8.6767], [-39.32134, -8.67722], [-39.32076, -8.67834], [-39.32042, -8.67959], [-39.32045, -8.68086], [-39.32144, -8.68318], [-39.31972, -8.69609], [-39.31869, -8.69823], [-39.3184, -8.6992], [-39.31853, -8.70134], [-39.31824, -8.70287], [-39.31746, -8.70426], [-39.3147, -8.70715], [-39.30756, -8.71095], [-39.30455, -8.71359], [-39.29577, -8.72858], [-39.31077, -8.73799], [-39.3107, -8.73915], [-39.31031, -8.74055], [-39.30916, -8.7418], [-39.30878, -8.74248], [-39.30811, -8.7439], [-39.30738, -8.74612], [-39.30932, -8.74595], [-39.31651, -8.74764], [-39.31747, -8.74767], [-39.31941, -8.74739], [-39.32003, -8.7486], [-39.31986, -8.74999], [-39.31995, -8.7505], [-39.32218, -8.7533], [-39.32493, -8.758], [-39.32503, -8.75869], [-39.3247, -8.76022], [-39.32481, -8.76082], [-39.33141, -8.76461], [-39.33096, -8.76705], [-39.33123, -8.76854], [-39.33121, -8.76952], [-39.3306, -8.77089], [-39.32941, -8.77264], [-39.32992, -8.77394], [-39.33026, -8.7774], [-39.33236, -8.77535], [-39.33334, -8.77484], [-39.33695, -8.77389], [-39.33921, -8.77427], [-39.33977, -8.77474], [-39.34058, -8.77615], [-39.34117, -8.77763], [-39.34138, -8.7791], [-39.34283, -8.77974], [-39.34316, -8.78003], [-39.34418, -8.78236], [-39.34547, -8.78421], [-39.34654, -8.78534], [-39.34721, -8.7857], [-39.34798, -8.78586], [-39.35029, -8.78605], [-39.35408, -8.78684], [-39.35498, -8.79077], [-39.35397, -8.79373], [-39.35393, -8.79471], [-39.35528, -8.79911], [-39.35581, -8.79904], [-39.35652, -8.79949], [-39.35694, -8.80094], [-39.35746, -8.80172], [-39.35875, -8.80302], [-39.35972, -8.8036], [-39.36048, -8.80379], [-39.36161, -8.8037], [-39.36276, -8.8034], [-39.36513, -8.80238], [-39.36627, -8.80219], [-39.3672, -8.80245], [-39.3679, -8.80311], [-39.36813, -8.80343], [-39.3682, -8.80435], [-39.36711, -8.8053], [-39.36703, -8.80638], [-39.36804, -8.80801], [-39.3681, -8.80895], [-39.36786, -8.8095], [-39.36753, -8.8096], [-39.36649, -8.80948], [-39.3658, -8.81032], [-39.36577, -8.81077], [-39.36648, -8.81193], [-39.36831, -8.81421], [-39.36993, -8.81527], [-39.37534, -8.81771], [-39.37818, -8.81837], [-39.37842, -8.81958], [-39.37896, -8.82002], [-39.37945, -8.82005], [-39.38139, -8.81837], [-39.38292, -8.81798], [-39.38421, -8.81636], [-39.38503, -8.8158], [-39.38619, -8.81548], [-39.38881, -8.81535], [-39.39179, -8.81488], [-39.39861, -8.81273], [-39.40028, -8.81244], [-39.40128, -8.81249], [-39.40304, -8.81331], [-39.40456, -8.81451], [-39.40875, -8.8185], [-39.41522, -8.82429], [-39.41836, -8.82791], [-39.42392, -8.82717], [-39.42467, -8.82743], [-39.42565, -8.82805], [-39.42605, -8.82802], [-39.42991, -8.82608], [-39.43186, -8.82351], [-39.4336, -8.82029], [-39.43447, -8.82013], [-39.43553, -8.82017], [-39.43641, -8.81971], [-39.43792, -8.81843], [-39.43835, -8.81676], [-39.44283, -8.81419], [-39.4452, -8.81238], [-39.44596, -8.8114], [-39.44899, -8.8056], [-39.44964, -8.80491], [-39.45263, -8.8042], [-39.45356, -8.80378], [-39.45599, -8.80252], [-39.45674, -8.80151], [-39.4571, -8.80128], [-39.45963, -8.80158], [-39.46063, -8.80139], [-39.4615, -8.8009], [-39.46375, -8.79897], [-39.46477, -8.79732], [-39.46248, -8.78738], [-39.47349, -8.76852], [-39.47461, -8.7671], [-39.47576, -8.76492], [-39.47126, -8.75961], [-39.46881, -8.75562], [-39.46781, -8.75436], [-39.46216, -8.74953], [-39.46174, -8.74748], [-39.46127, -8.74654], [-39.46065, -8.74569], [-39.45978, -8.74501], [-39.45867, -8.74467], [-39.45754, -8.74472], [-39.45673, -8.74503], [-39.45165, -8.74811], [-39.45103, -8.74825], [-39.44994, -8.74797], [-39.4459, -8.74636], [-39.44397, -8.74535], [-39.44315, -8.7447], [-39.44183, -8.74306], [-39.44133, -8.74304], [-39.4406, -8.74229], [-39.4407, -8.74177], [-39.44147, -8.74033], [-39.44126, -8.73987], [-39.44079, -8.73962], [-39.43402, -8.73996], [-39.4304, -8.73964], [-39.43311, -8.70342], [-39.43234, -8.70052], [-39.43019, -8.70107], [-39.42687, -8.70143], [-39.42538, -8.70125], [-39.42376, -8.70046], [-39.42087, -8.69836], [-39.42048, -8.69767], [-39.42025, -8.69656], [-39.41985, -8.69579], [-39.41632, -8.69353], [-39.41519, -8.69257], [-39.41443, -8.69158], [-39.41389, -8.68965], [-39.41356, -8.68525], [-39.41328, -8.68437], [-39.41219, -8.68244], [-39.41184, -8.68128], [-39.41189, -8.68038], [-39.41246, -8.67769], [-39.41219, -8.67461], [-39.41241, -8.67407], [-39.4139, -8.67242], [-39.41409, -8.67201], [-39.4145, -8.67035], [-39.41472, -8.66824], [-39.41438, -8.6672], [-39.41346, -8.66661], [-39.41239, -8.66618], [-39.41085, -8.66458], [-39.41046, -8.6636], [-39.41053, -8.66125], [-39.41026, -8.65821], [-39.40988, -8.65726], [-39.40929, -8.65635], [-39.40778, -8.65481], [-39.4072, -8.65382], [-39.40683, -8.65195], [-39.40714, -8.65093], [-39.40669, -8.64972], [-39.42356, -8.64337], [-39.43633, -8.65058], [-39.45078, -8.64642], [-39.45828, -8.64975], [-39.48162, -8.59781], [-39.48299, -8.5953], [-39.4816, -8.5942], [-39.48034, -8.5937], [-39.47875, -8.59359], [-39.47666, -8.59297], [-39.47419, -8.59255], [-39.47209, -8.59039], [-39.47152, -8.58947], [-39.46972, -8.58817], [-39.46677, -8.58642], [-39.46421, -8.58418], [-39.46302, -8.58347], [-39.46125, -8.58204], [-39.46118, -8.58181], [-39.45995, -8.58063], [-39.45939, -8.5792], [-39.45849, -8.57398], [-39.4584, -8.57225], [-39.45753, -8.56932], [-39.45296, -8.56416], [-39.45183, -8.56392], [-39.45095, -8.56299], [-39.44445, -8.5618], [-39.43549, -8.5633], [-39.43348, -8.56223], [-39.43303, -8.56181], [-39.42994, -8.55993], [-39.42913, -8.55976], [-39.42654, -8.55743], [-39.42589, -8.55524], [-39.42564, -8.55339], [-39.4248, -8.5514], [-39.42066, -8.54701], [-39.41976, -8.54668], [-39.4193, -8.54634], [-39.41896, -8.5459], [-39.41885, -8.5451], [-39.41604, -8.54213], [-39.41389, -8.54106], [-39.41283, -8.54134], [-39.41207, -8.54118], [-39.40904, -8.53889], [-39.40026, -8.53866], [-39.38637, -8.53349], [-39.37979, -8.53282], [-39.36446, -8.53785], [-39.35791, -8.54388], [-39.35749, -8.54666]]]}}, {"type": "Feature", "properties": {"terrai_cod": 20201, "terrai_nom": "Kambiwá", "etnia_nome": "Kambiwá", "municipio_": "Inajá,Ibimirim,Floresta", "uf_sigla": "PE", "superficie": 31495.3123}, "geometry": {"type": "Polygon", "coordinates": [[[-37.88922, -8.55309], [-37.85416, -8.58742], [-37.85771, -8.59562], [-37.87844, -8.64675], [-37.87445, -8.64849], [-37.87262, -8.65373], [-37.8689, -8.65512], [-37.86484, -8.65372], [-37.85772, -8.6565], [-37.85477, -8.66193], [-37.85557, -8.6661], [-37.85353, -8.66985], [-37.84392, -8.67972], [-37.822, -8.68303], [-37.81818, -8.68048], [-37.81152, -8.67931], [-37.80847, -8.67451], [-37.79897, -8.67247], [-37.78489, -8.67581], [-37.78191, -8.67835], [-37.77506, -8.67825], [-37.77179, -8.68215], [-37.75067, -8.69072], [-37.74905, -8.69055], [-37.74565, -8.69392], [-37.83697, -8.77678], [-37.89263, -8.71345], [-37.98272, -8.62404], [-37.99099, -8.61603], [-37.94003, -8.57139], [-37.91919, -8.55681], [-37.9131, -8.55294], [-37.90905, -8.5531], [-37.88922, -8.55309]]]}}, {"type": "Feature", "properties": {"terrai_cod": 62801, "terrai_nom": "Pipipã", "etnia_nome": "Aimore", "municipio_": "Floresta", "uf_sigla": "PE", "superficie": 63322.0}, "geometry": {"type": "Polygon", "coordinates": [[[-38.04643, -8.45659], [-38.04275, -8.45705], [-38.03951, -8.45715], [-38.03673, -8.45996], [-38.0326, -8.4597], [-38.02998, -8.45777], [-38.02772, -8.45948], [-38.02744, -8.45872], [-38.02708, -8.45866], [-38.02672, -8.45819], [-38.02649, -8.45695], [-38.02579, -8.45567], [-38.02495, -8.4524], [-38.02239, -8.45023], [-38.01231, -8.45278], [-38.00832, -8.45504], [-38.00715, -8.45746], [-38.00158, -8.45284], [-37.99845, -8.45648], [-37.99237, -8.45491], [-37.97825, -8.45923], [-37.96665, -8.45858], [-37.9653, -8.45719], [-37.96347, -8.45607], [-37.95924, -8.45213], [-37.95413, -8.4521], [-37.95195, -8.45097], [-37.95177, -8.45071], [-37.94872, -8.44892], [-37.94847, -8.44892], [-37.9447, -8.45257], [-37.93575, -8.45753], [-37.93308, -8.45886], [-37.92739, -8.45966], [-37.9224, -8.459], [-37.91818, -8.45776], [-37.915, -8.4564], [-37.91258, -8.45386], [-37.91113, -8.45356], [-37.90999, -8.45377], [-37.90744, -8.45521], [-37.9055, -8.45574], [-37.90346, -8.45705], [-37.90278, -8.45783], [-37.90246, -8.45895], [-37.90189, -8.45987], [-37.89951, -8.46213], [-37.89851, -8.46343], [-37.89197, -8.50775], [-37.88559, -8.50678], [-37.88828, -8.46882], [-37.87984, -8.47056], [-37.87807, -8.47004], [-37.87668, -8.469], [-37.87502, -8.46888], [-37.8737, -8.46914], [-37.87204, -8.47101], [-37.87092, -8.47378], [-37.86941, -8.47631], [-37.86766, -8.47815], [-37.86562, -8.48185], [-37.86349, -8.48447], [-37.86177, -8.48583], [-37.86079, -8.48818], [-37.86037, -8.49038], [-37.86101, -8.49434], [-37.8599, -8.49854], [-37.86055, -8.50206], [-37.85911, -8.50497], [-37.858, -8.5077], [-37.85777, -8.51072], [-37.85868, -8.51268], [-37.85825, -8.51546], [-37.85656, -8.51961], [-37.85504, -8.52177], [-37.85339, -8.5264], [-37.85484, -8.52928], [-37.85617, -8.5315], [-37.85769, -8.53276], [-37.85843, -8.53487], [-37.85961, -8.53608], [-37.86138, -8.53686], [-37.86189, -8.53736], [-37.8622, -8.53792], [-37.86222, -8.53849], [-37.8892, -8.55308], [-37.91315, -8.55311], [-37.94043, -8.57178], [-37.99084, -8.61603], [-37.95681, -8.64981], [-37.9915, -8.70792], [-38.00638, -8.70931], [-38.00648, -8.68005], [-38.00987, -8.66789], [-38.02428, -8.65279], [-38.03936, -8.65878], [-38.04103, -8.66543], [-38.04002, -8.6747], [-38.05135, -8.68758], [-38.05678, -8.69088], [-38.06247, -8.69179], [-38.06471, -8.6894], [-38.06546, -8.68442], [-38.07305, -8.67995], [-38.08196, -8.68114], [-38.08404, -8.68638], [-38.09479, -8.68912], [-38.09755, -8.69436], [-38.10057, -8.69601], [-38.10928, -8.69632], [-38.11118, -8.69449], [-38.11629, -8.69469], [-38.12107, -8.6918], [-38.1315, -8.69104], [-38.13723, -8.69203], [-38.14167, -8.69698], [-38.14291, -8.69671], [-38.14476, -8.69669], [-38.14671, -8.69567], [-38.14894, -8.69474], [-38.14967, -8.69501], [-38.15429, -8.69531], [-38.15628, -8.69332], [-38.15674, -8.69075], [-38.15936, -8.68943], [-38.16276, -8.68945], [-38.16387, -8.68819], [-38.16683, -8.68627], [-38.17007, -8.68559], [-38.17238, -8.6865], [-38.17431, -8.68527], [-38.17687, -8.68301], [-38.17753, -8.68311], [-38.1802, -8.68228], [-38.18315, -8.68043], [-38.18342, -8.68008], [-38.18405, -8.67834], [-38.17743, -8.67638], [-38.17369, -8.66883], [-38.17494, -8.66795], [-38.16824, -8.66399], [-38.16767, -8.66343], [-38.16339, -8.65576], [-38.15634, -8.64969], [-38.15059, -8.65158], [-38.14593, -8.65146], [-38.1465, -8.6421], [-38.14835, -8.63912], [-38.14796, -8.63808], [-38.14867, -8.63407], [-38.14988, -8.63274], [-38.15155, -8.63207], [-38.15213, -8.63118], [-38.15197, -8.62829], [-38.1509, -8.62637], [-38.14983, -8.6254], [-38.14869, -8.62478], [-38.14698, -8.62438], [-38.13973, -8.62447], [-38.13678, -8.62429], [-38.13467, -8.62248], [-38.13189, -8.61913], [-38.1317, -8.61783], [-38.1347, -8.61193], [-38.13453, -8.61008], [-38.13264, -8.60827], [-38.12954, -8.60586], [-38.12823, -8.60394], [-38.12767, -8.60189], [-38.1274, -8.60155], [-38.12698, -8.60138], [-38.12273, -8.60121], [-38.12076, -8.60052], [-38.11914, -8.59925], [-38.11652, -8.59514], [-38.11561, -8.59478], [-38.1147, -8.59493], [-38.11095, -8.59381], [-38.12251, -8.5325], [-38.12855, -8.53048], [-38.13911, -8.51117], [-38.13811, -8.51064], [-38.13881, -8.50717], [-38.1372, -8.5054], [-38.13464, -8.50559], [-38.13219, -8.5046], [-38.13085, -8.50237], [-38.12827, -8.50111], [-38.12551, -8.49742], [-38.1222, -8.49543], [-38.11708, -8.49461], [-38.11419, -8.49346], [-38.1113, -8.48955], [-38.1048, -8.48351], [-38.10204, -8.48268], [-38.10164, -8.48179], [-38.10043, -8.47753], [-38.09711, -8.47385], [-38.09322, -8.47192], [-38.091, -8.4698], [-38.088, -8.46654], [-38.0857, -8.46324], [-38.08422, -8.4619], [-38.08207, -8.46055], [-38.08084, -8.45843], [-38.08151, -8.45689], [-38.08159, -8.45544], [-38.08088, -8.45397], [-38.07986, -8.45274], [-38.07497, -8.45098], [-38.07426, -8.45015], [-38.07378, -8.44929], [-38.0735, -8.44778], [-38.07355, -8.44648], [-38.07325, -8.44574], [-38.07215, -8.44471], [-38.07162, -8.44451], [-38.07215, -8.44504], [-38.06497, -8.44308], [-38.06242, -8.44892], [-38.06077, -8.44957], [-38.0579, -8.44776], [-38.05465, -8.45058], [-38.04996, -8.4502], [-38.04643, -8.45659]]]}}, {"type": "Feature", "properties": {"terrai_cod": 46602, "terrai_nom": "Truká - Ilha da Assunção", "etnia_nome": "Truká", "municipio_": "Cabrobó", "uf_sigla": "PE", "superficie": 5769.0}, "geometry": {"type": "Polygon", "coordinates": [[[-39.29613, -8.56062], [-39.29609, -8.56073], [-39.29638, -8.56121], [-39.29767, -8.56202], [-39.29854, -8.56208], [-39.3014, -8.56189], [-39.30174, -8.56171], [-39.30415, -8.56168], [-39.30523, -8.56134], [-39.30547, -8.56086], [-39.30544, -8.56065], [-39.30425, -8.56028], [-39.30245, -8.56058], [-39.29613, -8.56062]]]}}, {"type": "Feature", "properties": {"terrai_cod": 71001, "terrai_nom": "Pankará da Serra do Arapuá", "etnia_nome": "Pankará", "municipio_": "Carnaubeira da Penha", "uf_sigla": "PE", "superficie": 15114.0}, "geometry": {"type": "MultiPolygon", "coordinates": [[[[-38.66013, -8.36843], [-38.66026, -8.36926], [-38.66009, -8.3698], [-38.65963, -8.37044], [-38.65912, -8.37068], [-38.65762, -8.37037], [-38.65701, -8.37041], [-38.65542, -8.37096], [-38.65447, -8.37139], [-38.65392, -8.37244], [-38.6531, -8.37276], [-38.65259, -8.37273], [-38.6523, -8.37254], [-38.65204, -8.3719], [-38.65182, -8.37222], [-38.65171, -8.37314], [-38.65063, -8.37356], [-38.65392, -8.3904], [-38.64946, -8.3909], [-38.66624, -8.41648], [-38.667, -8.41638], [-38.66711, -8.41831], [-38.66757, -8.41934], [-38.66805, -8.41983], [-38.66992, -8.4203], [-38.67026, -8.42052], [-38.67048, -8.42131], [-38.67043, -8.42197], [-38.66963, -8.42395], [-38.66992, -8.42434], [-38.67099, -8.42427], [-38.67122, -8.42456], [-38.67129, -8.42533], [-38.67096, -8.42637], [-38.67097, -8.42685], [-38.67262, -8.43028], [-38.67364, -8.43294], [-38.67394, -8.43397], [-38.67405, -8.43612], [-38.67537, -8.43932], [-38.67572, -8.43957], [-38.67637, -8.43965], [-38.67704, -8.43953], [-38.6779, -8.43907], [-38.6801, -8.43902], [-38.68095, -8.43848], [-38.682, -8.43719], [-38.68242, -8.43698], [-38.68204, -8.43786], [-38.68135, -8.43877], [-38.67931, -8.44227], [-38.67821, -8.44481], [-38.67781, -8.44517], [-38.67692, -8.44555], [-38.67672, -8.44592], [-38.67662, -8.44733], [-38.67565, -8.45058], [-38.67452, -8.45148], [-38.67419, -8.45194], [-38.6732, -8.45628], [-38.67297, -8.45669], [-38.67213, -8.4572], [-38.67187, -8.45762], [-38.67197, -8.45903], [-38.67189, -8.45926], [-38.67109, -8.45989], [-38.67064, -8.46059], [-38.67023, -8.46238], [-38.6699, -8.46303], [-38.66876, -8.46409], [-38.66702, -8.46498], [-38.66638, -8.46506], [-38.66505, -8.46499], [-38.66019, -8.46331], [-38.65959, -8.46348], [-38.65953, -8.46369], [-38.65881, -8.46411], [-38.65857, -8.46448], [-38.65854, -8.46484], [-38.65914, -8.4668], [-38.65826, -8.46931], [-38.65815, -8.47047], [-38.65842, -8.47149], [-38.65885, -8.47215], [-38.66031, -8.47349], [-38.66162, -8.47585], [-38.66233, -8.47623], [-38.66374, -8.47636], [-38.66439, -8.47695], [-38.66451, -8.47766], [-38.66495, -8.47863], [-38.6637, -8.47969], [-38.66348, -8.4806], [-38.66423, -8.48636], [-38.66463, -8.48706], [-38.66501, -8.48738], [-38.66559, -8.48765], [-38.66765, -8.48783], [-38.66916, -8.48868], [-38.66935, -8.48911], [-38.66895, -8.49116], [-38.66895, -8.49225], [-38.66954, -8.49438], [-38.67054, -8.49336], [-38.67195, -8.49141], [-38.67382, -8.48994], [-38.67533, -8.48802], [-38.67615, -8.48729], [-38.67734, -8.48492], [-38.67833, -8.48369], [-38.67918, -8.48221], [-38.67966, -8.48197], [-38.68065, -8.48226], [-38.68144, -8.48221], [-38.68295, -8.48055], [-38.68344, -8.48026], [-38.68428, -8.4801], [-38.68698, -8.48006], [-38.68845, -8.47981], [-38.69009, -8.47922], [-38.69069, -8.47861], [-38.69089, -8.47814], [-38.69095, -8.47654], [-38.69123, -8.47532], [-38.69188, -8.47459], [-38.69255, -8.47426], [-38.6943, -8.47411], [-38.69994, -8.4742], [-38.70215, -8.47469], [-38.70419, -8.47484], [-38.70571, -8.476], [-38.70739, -8.47662], [-38.70795, -8.47729], [-38.70889, -8.47804], [-38.71238, -8.47953], [-38.71341, -8.47957], [-38.71422, -8.4794], [-38.71635, -8.47844], [-38.71837, -8.4755], [-38.71879, -8.4751], [-38.72016, -8.47445], [-38.73132, -8.47346], [-38.75005, -8.47659], [-38.75515, -8.47798], [-38.76263, -8.45496], [-38.77149, -8.43417], [-38.7833, -8.43878], [-38.7852, -8.4353], [-38.78547, -8.43413], [-38.7852, -8.43213], [-38.78471, -8.4309], [-38.78322, -8.4283], [-38.78269, -8.42538], [-38.78178, -8.42449], [-38.78163, -8.42408], [-38.78169, -8.42377], [-38.78276, -8.42304], [-38.78343, -8.42219], [-38.78548, -8.42078], [-38.7856, -8.42045], [-38.78547, -8.41963], [-38.78468, -8.41845], [-38.78468, -8.4175], [-38.78367, -8.41745], [-38.78286, -8.41711], [-38.78057, -8.4156], [-38.77925, -8.415], [-38.7784, -8.41438], [-38.77733, -8.41395], [-38.77636, -8.4137], [-38.77462, -8.41383], [-38.77238, -8.4134], [-38.771, -8.41277], [-38.77052, -8.41206], [-38.76793, -8.4096], [-38.76751, -8.40884], [-38.76728, -8.40799], [-38.76517, -8.40681], [-38.76371, -8.4057], [-38.76249, -8.40356], [-38.76095, -8.4031], [-38.75935, -8.40302], [-38.75906, -8.40253], [-38.75852, -8.40227], [-38.75786, -8.40207], [-38.75646, -8.40202], [-38.75474, -8.40129], [-38.75223, -8.39895], [-38.7508, -8.39708], [-38.74485, -8.39723], [-38.73404, -8.38894], [-38.73421, -8.38751], [-38.73477, -8.38635], [-38.73496, -8.38443], [-38.7354, -8.38283], [-38.73554, -8.37935], [-38.73572, -8.3784], [-38.73704, -8.37556], [-38.73735, -8.37177], [-38.73887, -8.36861], [-38.73952, -8.36786], [-38.73203, -8.36334], [-38.73023, -8.35484], [-38.71669, -8.34417], [-38.71576, -8.34405], [-38.71368, -8.34262], [-38.71276, -8.34234], [-38.71068, -8.34272], [-38.70992, -8.34237], [-38.70935, -8.34173], [-38.70882, -8.34148], [-38.70574, -8.34216], [-38.70435, -8.34229], [-38.70286, -8.34214], [-38.701, -8.34251], [-38.69996, -8.3425], [-38.69882, -8.34278], [-38.69668, -8.34369], [-38.69494, -8.34498], [-38.69368, -8.3457], [-38.69132, -8.3467], [-38.68993, -8.34688], [-38.68919, -8.34671], [-38.68593, -8.34482], [-38.68319, -8.34412], [-38.68068, -8.34291], [-38.67882, -8.34315], [-38.67807, -8.34294], [-38.67754, -8.34243], [-38.6768, -8.34226], [-38.6755, -8.34311], [-38.67434, -8.34303], [-38.67346, -8.34269], [-38.67258, -8.34173], [-38.67197, -8.34146], [-38.67036, -8.34189], [-38.66978, -8.34162], [-38.66835, -8.34153], [-38.66655, -8.34116], [-38.66594, -8.34169], [-38.66591, -8.34244], [-38.66628, -8.34296], [-38.66684, -8.34308], [-38.66714, -8.34331], [-38.66728, -8.34416], [-38.66719, -8.34541], [-38.66798, -8.34632], [-38.66815, -8.3468], [-38.66767, -8.34768], [-38.66651, -8.34853], [-38.66631, -8.34881], [-38.6663, -8.34924], [-38.6678, -8.35082], [-38.668, -8.35116], [-38.66802, -8.35183], [-38.66722, -8.35284], [-38.66717, -8.35448], [-38.66631, -8.35529], [-38.66606, -8.35585], [-38.66652, -8.35744], [-38.66641, -8.35829], [-38.66576, -8.35883], [-38.66267, -8.35957], [-38.66205, -8.3602], [-38.66159, -8.36096], [-38.66165, -8.36199], [-38.66255, -8.36257], [-38.66267, -8.3628], [-38.6627, -8.3639], [-38.66249, -8.36452], [-38.66013, -8.36843]]], [[[-38.64831, -8.38914], [-38.64647, -8.37973], [-38.64427, -8.38299], [-38.64831, -8.38914]]]]}}, {"type": "Feature", "properties": {"terrai_cod": 4501, "terrai_nom": "Atikum", "etnia_nome": "Atikum", "municipio_": "Salgueiro,Mirandiba,Carnaubeira da Penha,Belém do São Francisco", "uf_sigla": "PE", "superficie": 16290.1893}, "geometry": {"type": "Polygon", "coordinates": [[[-38.75274, -8.30979], [-38.77591, -8.33454], [-38.89741, -8.35635], [-38.91588, -8.34044], [-38.91514, -8.33389], [-38.91116, -8.33045], [-38.90975, -8.3281], [-38.90717, -8.32747], [-38.90662, -8.32489], [-38.90197, -8.32082], [-38.89832, -8.32048], [-38.89322, -8.31391], [-38.88977, -8.31311], [-38.88739, -8.3097], [-38.86305, -8.29226], [-38.86105, -8.29218], [-38.85794, -8.28667], [-38.85027, -8.28568], [-38.84316, -8.27643], [-38.83911, -8.27496], [-38.83897, -8.27124], [-38.83648, -8.26984], [-38.83738, -8.26755], [-38.83159, -8.25955], [-38.82597, -8.25511], [-38.82068, -8.24685], [-38.81702, -8.24519], [-38.81652, -8.24104], [-38.81253, -8.23521], [-38.74865, -8.24377], [-38.74056, -8.26145], [-38.75274, -8.30979]]]}}]}