{"type": "FeatureCollection", "features": [{"type": "Feature", "properties": {"cd_quilomb": null, "nm_comunid": "CATUABO", "nm_municip": "FREI DE PAULO", "cd_uf": "SE", "nr_area_ha": 886.7775, "fase": "PORTARIA"}, "geometry": {"type": "Polygon", "coordinates": [[[-37.56323, -10.42221], [-37.56083, -10.41917], [-37.54601, -10.42785], [-37.5389, -10.44173], [-37.53933, -10.44688], [-37.53575, -10.44997], [-37.53645, -10.45123], [-37.5361, -10.45156], [-37.53649, -10.45148], [-37.5366, -10.45204], [-37.53648, -10.45233], [-37.53729, -10.45435], [-37.54119, -10.4591], [-37.5415, -10.45939], [-37.54285, -10.45995], [-37.54331, -10.46108], [-37.54417, -10.46173], [-37.54754, -10.46182], [-37.55715, -10.44599], [-37.55864, -10.44274], [-37.56343, -10.42294], [-37.56323, -10.42221]]]}}, {"type": "Feature", "properties": {"cd_quilomb": 10.0, "nm_comunid": "TIJUAÇU", "nm_municip": "SENHOR DO BOMFIM e FILADÉLFIA", "cd_uf": "BA", "nr_area_ha": 8472.2214, "fase": "DECRETO"}, "geometry": {"type": "MultiPolygon", "coordinates": [[[[-40.08492, -10.63279], [-40.08436, -10.63562], [-40.08238, -10.63202], [-40.08009, -10.6325], [-40.07981, -10.63366], [-40.08106, -10.63438], [-40.08155, -10.63602], [-40.07996, -10.63618], [-40.07792, -10.64204], [-40.07737, -10.64424], [-40.07833, -10.64689], [-40.07403, -10.64758], [-40.07377, -10.64619], [-40.0725, -10.64405], [-40.06879, -10.64348], [-40.06873, -10.64359], [-40.06695, -10.64336], [-40.06402, -10.64385], [-40.06406, -10.64617], [-40.06362, -10.64625], [-40.06434, -10.65052], [-40.07293, -10.65204], [-40.07476, -10.65178], [-40.07493, -10.65552], [-40.07544, -10.65886], [-40.07609, -10.65753], [-40.07842, -10.65694], [-40.08407, -10.66043], [-40.08412, -10.66026], [-40.08292, -10.65757], [-40.08434, -10.65729], [-40.08436, -10.65568], [-40.08914, -10.65831], [-40.09571, -10.66371], [-40.09587, -10.66361], [-40.097, -10.66493], [-40.09821, -10.66377], [-40.09998, -10.66513], [-40.10078, -10.66454], [-40.1006, -10.66311], [-40.10309, -10.66268], [-40.10375, -10.66417], [-40.10462, -10.66517], [-40.10382, -10.66626], [-40.10512, -10.66917], [-40.10545, -10.67031], [-40.1052, -10.67085], [-40.10607, -10.67235], [-40.10779, -10.6712], [-40.10762, -10.66757], [-40.10629, -10.66344], [-40.10764, -10.66191], [-40.10806, -10.66077], [-40.10997, -10.65838], [-40.11349, -10.65353], [-40.1195, -10.65517], [-40.12025, -10.65753], [-40.12257, -10.65708], [-40.126, -10.65678], [-40.12614, -10.65668], [-40.12551, -10.65474], [-40.13331, -10.6522], [-40.13385, -10.6519], [-40.13636, -10.65159], [-40.13657, -10.64742], [-40.1453, -10.64979], [-40.14615, -10.64982], [-40.14615, -10.65119], [-40.14688, -10.65359], [-40.14742, -10.65458], [-40.15238, -10.65164], [-40.1555, -10.64994], [-40.15631, -10.64968], [-40.15704, -10.65127], [-40.15782, -10.65354], [-40.15928, -10.65329], [-40.16322, -10.65217], [-40.1664, -10.65026], [-40.1724, -10.64793], [-40.17123, -10.64525], [-40.17011, -10.64024], [-40.17295, -10.64147], [-40.17596, -10.64206], [-40.17835, -10.64363], [-40.17884, -10.64299], [-40.17971, -10.64336], [-40.18081, -10.64355], [-40.18052, -10.63524], [-40.1778, -10.62887], [-40.17289, -10.62466], [-40.16485, -10.62179], [-40.16076, -10.61741], [-40.14258, -10.63818], [-40.08524, -10.63026], [-40.08492, -10.63279]]], [[[-40.1927, -10.64157], [-40.19296, -10.64085], [-40.19228, -10.6422], [-40.1927, -10.64157]]]]}}, {"type": "Feature", "properties": {"cd_quilomb": null, "nm_comunid": "JIBÓIA", "nm_municip": "ANTÔNIO GONÇALVES e FILADÉFIA", "cd_uf": "BA", "nr_area_ha": 2023.1548, "fase": "RTID"}, "geometry": {"type": "Polygon", "coordinates": [[[-40.22205, -10.61455], [-40.22469, -10.61823], [-40.22545, -10.62159], [-40.2251, -10.62372], [-40.22638, -10.62472], [-40.23066, -10.62882], [-40.23224, -10.62742], [-40.23476, -10.62742], [-40.2381, -10.62781], [-40.24034, -10.62605], [-40.24509, -10.62383], [-40.24558, -10.62282], [-40.24636, -10.62184], [-40.2453, -10.62064], [-40.24466, -10.61871], [-40.24501, -10.61622], [-40.24469, -10.6142], [-40.24477, -10.61384], [-40.24656, -10.61193], [-40.24807, -10.61064], [-40.24895, -10.6103], [-40.25593, -10.60862], [-40.22093, -10.61096], [-40.21991, -10.61205], [-40.22205, -10.61455]]]}}, {"type": "Feature", "properties": {"cd_quilomb": 162.0, "nm_comunid": "CURRAL DE PEDRA", "nm_municip": "ABARÉ", "cd_uf": "BA", "nr_area_ha": 4515.2647, "fase": "PORTARIA"}, "geometry": {"type": "Polygon", "coordinates": [[[-39.28119, -8.79649], [-39.27367, -8.78496], [-39.26096, -8.76409], [-39.21776, -8.78407], [-39.21154, -8.78844], [-39.22711, -8.82312], [-39.26022, -8.81148], [-39.25997, -8.83048], [-39.28366, -8.84468], [-39.31058, -8.84291], [-39.28119, -8.79649]]]}}, {"type": "Feature", "properties": {"cd_quilomb": 44.0, "nm_comunid": "SUMIDOURO", "nm_municip": "QUEIMADA NOVA", "cd_uf": "PI", "nr_area_ha": 932.1131, "fase": "RTID"}, "geometry": {"type": "Polygon", "coordinates": [[[-41.42093, -8.65017], [-41.41766, -8.65066], [-41.41678, -8.65118], [-41.41521, -8.65247], [-41.41178, -8.66514], [-41.41127, -8.67404], [-41.41614, -8.67331], [-41.4191, -8.6768], [-41.41926, -8.67804], [-41.42077, -8.6785], [-41.42278, -8.67228], [-41.42469, -8.67005], [-41.42635, -8.67264], [-41.42923, -8.67093], [-41.43583, -8.67432], [-41.43802, -8.67446], [-41.43981, -8.67688], [-41.44182, -8.67907], [-41.44728, -8.67422], [-41.45141, -8.67092], [-41.45081, -8.66719], [-41.45181, -8.66571], [-41.45197, -8.66505], [-41.45191, -8.6643], [-41.44934, -8.65767], [-41.44508, -8.66154], [-41.445, -8.66306], [-41.44584, -8.66454], [-41.44801, -8.66545], [-41.43627, -8.67248], [-41.43672, -8.66994], [-41.43544, -8.66185], [-41.43489, -8.66237], [-41.43471, -8.66038], [-41.43514, -8.66004], [-41.43402, -8.65878], [-41.43366, -8.65773], [-41.43497, -8.65735], [-41.43522, -8.65614], [-41.43504, -8.65552], [-41.43401, -8.65435], [-41.43465, -8.65386], [-41.4343, -8.65316], [-41.43479, -8.65256], [-41.43465, -8.65239], [-41.43425, -8.64898], [-41.43465, -8.64814], [-41.43531, -8.64775], [-41.43301, -8.64116], [-41.41905, -8.64486], [-41.42093, -8.65017]], [[-41.42622, -8.66763], [-41.42626, -8.66758], [-41.4331, -8.6702], [-41.42622, -8.66763]]]}}, {"type": "Feature", "properties": {"cd_quilomb": null, "nm_comunid": "TQ Cruz dos Riachos", "nm_municip": "Cabrobó", "cd_uf": "PE", "nr_area_ha": 380.2543, "fase": null}, "geometry": {"type": "MultiPolygon", "coordinates": [[[[-39.22597, -8.54674], [-39.22647, -8.54721], [-39.22706, -8.54739], [-39.22746, -8.5473], [-39.2355, -8.54321], [-39.23283, -8.54118], [-39.23232, -8.54203], [-39.22971, -8.54284], [-39.22808, -8.53844], [-39.22563, -8.53664], [-39.22308, -8.53804], [-39.22597, -8.54674]]], [[[-39.23463, -8.53946], [-39.23551, -8.54163], [-39.23759, -8.53788], [-39.23566, -8.53644], [-39.23366, -8.5398], [-39.23393, -8.53987], [-39.23463, -8.53946]]]]}}, {"type": "Feature", "properties": {"cd_quilomb": 122.0, "nm_comunid": "TAPUIO", "nm_municip": "QUEIMADA NOVA", "cd_uf": "PI", "nr_area_ha": 550.1847, "fase": "RTID"}, "geometry": {"type": "Polygon", "coordinates": [[[-41.35439, -8.5351], [-41.35497, -8.53502], [-41.35532, -8.53581], [-41.36108, -8.53441], [-41.365, -8.53485], [-41.36772, -8.53195], [-41.36986, -8.53075], [-41.37273, -8.52985], [-41.37227, -8.52911], [-41.37019, -8.52763], [-41.36809, -8.52485], [-41.36806, -8.52432], [-41.36826, -8.52382], [-41.36882, -8.52321], [-41.36965, -8.52286], [-41.36939, -8.5221], [-41.37496, -8.52042], [-41.37629, -8.51408], [-41.37372, -8.51264], [-41.36644, -8.50741], [-41.36635, -8.50762], [-41.36635, -8.50731], [-41.36351, -8.50398], [-41.36373, -8.50371], [-41.36276, -8.50237], [-41.3626, -8.50169], [-41.36246, -8.4998], [-41.36288, -8.49616], [-41.3486, -8.49568], [-41.35348, -8.49757], [-41.35441, -8.49826], [-41.35624, -8.49868], [-41.35886, -8.50334], [-41.35894, -8.50619], [-41.36054, -8.50907], [-41.35883, -8.51218], [-41.35913, -8.51403], [-41.36056, -8.51622], [-41.36085, -8.51726], [-41.35846, -8.52083], [-41.35839, -8.52148], [-41.35712, -8.52272], [-41.35689, -8.52345], [-41.35502, -8.52417], [-41.35457, -8.52625], [-41.35538, -8.52789], [-41.35439, -8.5351]]]}}, {"type": "Feature", "properties": {"cd_quilomb": 69.0, "nm_comunid": "SERRA DA GUIA", "nm_municip": "POÇO REDONDO", "cd_uf": "SE", "nr_area_ha": 9013.1831, "fase": "TITULO PARCIAL"}, "geometry": {"type": "Polygon", "coordinates": [[[-37.87153, -9.90507], [-37.873, -9.90693], [-37.8741, -9.90911], [-37.8766, -9.91252], [-37.87918, -9.91567], [-37.88393, -9.92521], [-37.88871, -9.92451], [-37.89457, -9.92267], [-37.89543, -9.92279], [-37.89396, -9.92574], [-37.89321, -9.92916], [-37.89173, -9.93251], [-37.8889, -9.94056], [-37.88766, -9.93991], [-37.88669, -9.93998], [-37.88583, -9.93934], [-37.88328, -9.93479], [-37.87391, -9.93575], [-37.86864, -9.92952], [-37.86324, -9.93666], [-37.86259, -9.93695], [-37.86215, -9.92189], [-37.85885, -9.92219], [-37.85659, -9.92298], [-37.85514, -9.92306], [-37.85417, -9.92289], [-37.8518, -9.92415], [-37.85046, -9.9243], [-37.84924, -9.92503], [-37.84881, -9.92577], [-37.84652, -9.92745], [-37.84452, -9.92838], [-37.84321, -9.92867], [-37.84278, -9.93108], [-37.83979, -9.93438], [-37.83304, -9.9365], [-37.82671, -9.94103], [-37.82315, -9.9427], [-37.82327, -9.94429], [-37.82182, -9.94889], [-37.81852, -9.95004], [-37.81423, -9.95088], [-37.81236, -9.95094], [-37.80916, -9.95242], [-37.80747, -9.95268], [-37.8059, -9.95376], [-37.80412, -9.95362], [-37.80308, -9.95274], [-37.80091, -9.95394], [-37.79967, -9.95394], [-37.79656, -9.95235], [-37.79413, -9.95713], [-37.79228, -9.9582], [-37.78868, -9.96235], [-37.78706, -9.96287], [-37.78605, -9.96445], [-37.78675, -9.9652], [-37.78671, -9.96701], [-37.78506, -9.96696], [-37.785, -9.96868], [-37.78539, -9.97041], [-37.7864, -9.97192], [-37.78638, -9.97429], [-37.78602, -9.9762], [-37.78535, -9.9774], [-37.78513, -9.97911], [-37.78435, -9.98195], [-37.78331, -9.98315], [-37.78197, -9.98532], [-37.78186, -9.98631], [-37.78199, -9.98749], [-37.78135, -9.99052], [-37.78508, -9.99649], [-37.78634, -9.99642], [-37.78955, -9.99713], [-37.79142, -9.99733], [-37.79334, -9.99837], [-37.79525, -9.9987], [-37.79635, -9.99928], [-37.79749, -9.99954], [-37.79816, -10.00002], [-37.79887, -10.00024], [-37.80081, -10.00008], [-37.80172, -10.00016], [-37.80263, -10.00045], [-37.80381, -9.99999], [-37.80582, -9.99883], [-37.80613, -9.99885], [-37.80777, -9.99968], [-37.81003, -10.00121], [-37.81097, -10.00159], [-37.81173, -10.00169], [-37.81359, -10.00247], [-37.81473, -10.001], [-37.81555, -10.00175], [-37.81623, -10.00267], [-37.81776, -10.00405], [-37.81856, -10.00446], [-37.81934, -10.00453], [-37.82363, -9.99805], [-37.83941, -9.99495], [-37.84171, -9.99511], [-37.84524, -9.99322], [-37.84616, -9.99251], [-37.84731, -9.99115], [-37.84813, -9.98961], [-37.84939, -9.98917], [-37.85488, -9.98963], [-37.85489, -9.99002], [-37.85851, -9.9892], [-37.85895, -9.98875], [-37.8619, -9.9873], [-37.86657, -9.98246], [-37.86859, -9.98179], [-37.87545, -9.97877], [-37.87695, -9.97885], [-37.88141, -9.98073], [-37.88544, -9.97999], [-37.88891, -9.97859], [-37.89345, -9.97796], [-37.89461, -9.97811], [-37.8979, -9.97787], [-37.89927, -9.97833], [-37.90177, -9.97792], [-37.90776, -9.97576], [-37.91552, -9.97586], [-37.92053, -9.97446], [-37.92216, -9.97322], [-37.92606, -9.96697], [-37.92734, -9.96558], [-37.92911, -9.96546], [-37.93362, -9.9663], [-37.93668, -9.96602], [-37.93652, -9.96512], [-37.93613, -9.96419], [-37.93454, -9.96178], [-37.9287, -9.95679], [-37.92648, -9.95382], [-37.9255, -9.94976], [-37.92554, -9.94391], [-37.92424, -9.94263], [-37.92353, -9.94042], [-37.92025, -9.9359], [-37.91713, -9.93282], [-37.91159, -9.9303], [-37.90685, -9.92497], [-37.90065, -9.92063], [-37.89735, -9.91304], [-37.89511, -9.91294], [-37.8931, -9.91335], [-37.89154, -9.91409], [-37.88718, -9.91377], [-37.88505, -9.91275], [-37.88028, -9.90917], [-37.87713, -9.90855], [-37.87422, -9.90545], [-37.87287, -9.90465], [-37.87045, -9.90228], [-37.87153, -9.90507]], [[-37.90561, -9.92799], [-37.90126, -9.92124], [-37.90581, -9.92812], [-37.90561, -9.92799]], [[-37.90914, -9.93988], [-37.90896, -9.94002], [-37.90694, -9.94034], [-37.90914, -9.93988]], [[-37.89563, -9.94271], [-37.89539, -9.94356], [-37.89505, -9.94283], [-37.89563, -9.94271]]]}}, {"type": "Feature", "properties": {"cd_quilomb": null, "nm_comunid": "MOCAMBO - SE", "nm_municip": "PORTO DA FOLHA", "cd_uf": "SE", "nr_area_ha": 2100.54, "fase": "TITULO PARCIAL"}, "geometry": {"type": "Polygon", "coordinates": [[[-37.42841, -9.82918], [-37.43597, -9.84009], [-37.44433, -9.82944], [-37.44217, -9.82828], [-37.4405, -9.8251], [-37.43994, -9.82284], [-37.44069, -9.81908], [-37.44182, -9.81658], [-37.44171, -9.81447], [-37.43982, -9.80947], [-37.43804, -9.80598], [-37.43614, -9.80349], [-37.43396, -9.8019], [-37.43324, -9.8005], [-37.43374, -9.78678], [-37.4308, -9.7806], [-37.42792, -9.77789], [-37.42388, -9.77353], [-37.42346, -9.77133], [-37.42446, -9.76854], [-37.42586, -9.7676], [-37.42717, -9.76703], [-37.42939, -9.7667], [-37.43244, -9.76596], [-37.43349, -9.76468], [-37.43419, -9.76314], [-37.43417, -9.76286], [-37.43371, -9.76044], [-37.43232, -9.75759], [-37.42492, -9.76157], [-37.41256, -9.76156], [-37.40802, -9.76411], [-37.39932, -9.77325], [-37.39916, -9.77439], [-37.39846, -9.77585], [-37.3962, -9.77718], [-37.39481, -9.7787], [-37.39985, -9.7842], [-37.42841, -9.82918]]]}}, {"type": "Feature", "properties": {"cd_quilomb": 91.0, "nm_comunid": "CONCEIÇAO DAS CRIOULAS", "nm_municip": "SALGUEIRO", "cd_uf": "PE", "nr_area_ha": 16865.0678, "fase": "TITULO PARCIAL"}, "geometry": {"type": "MultiPolygon", "coordinates": [[[[-38.9066, -8.32482], [-38.90587, -8.32419], [-38.90663, -8.32495], [-38.9066, -8.32482]]], [[[-38.92818, -8.35624], [-38.92787, -8.35571], [-38.92801, -8.35614], [-38.92818, -8.35624]]], [[[-38.92988, -8.357], [-38.93095, -8.35686], [-38.9319, -8.3565], [-38.93448, -8.35514], [-38.93649, -8.35367], [-38.92854, -8.35646], [-38.92988, -8.357]]], [[[-38.94168, -8.35542], [-38.94451, -8.35417], [-38.94558, -8.35418], [-38.9443, -8.35404], [-38.94047, -8.3552], [-38.94168, -8.35542]]], [[[-38.94773, -8.35457], [-38.9492, -8.35458], [-38.94615, -8.35424], [-38.94773, -8.35457]]], [[[-38.95074, -8.35507], [-38.95027, -8.35469], [-38.94978, -8.35464], [-38.95074, -8.35507]]], [[[-38.95484, -8.35722], [-38.95635, -8.35606], [-38.95323, -8.35702], [-38.9537, -8.35735], [-38.95484, -8.35722]]], [[[-38.95837, -8.35557], [-38.95881, -8.35531], [-38.95714, -8.35582], [-38.95837, -8.35557]]], [[[-38.96206, -8.35454], [-38.96385, -8.35405], [-38.96557, -8.35317], [-38.9667, -8.35222], [-38.96417, -8.35136], [-38.96115, -8.35459], [-38.96206, -8.35454]]], [[[-38.97045, -8.35387], [-38.96907, -8.35425], [-38.96979, -8.35434], [-38.97045, -8.35387]]], [[[-38.97504, -8.35287], [-38.97483, -8.35269], [-38.97451, -8.3528], [-38.97504, -8.35287]]], [[[-38.98085, -8.35718], [-38.98182, -8.35704], [-38.98249, -8.35568], [-38.98266, -8.35401], [-38.98158, -8.35653], [-38.97995, -8.35654], [-38.98085, -8.35718]]]]}}, {"type": "Feature", "properties": {"cd_quilomb": null, "nm_comunid": "CONTENTE", "nm_municip": "PAULISTANA", "cd_uf": "PI", "nr_area_ha": 686.4854, "fase": "RTID"}, "geometry": {"type": "Polygon", "coordinates": [[[-41.00359, -7.98831], [-40.9996, -7.9918], [-40.99504, -7.99419], [-40.99667, -8.00122], [-41.00203, -8.00991], [-41.00841, -8.01047], [-41.00872, -8.00957], [-41.00952, -8.01062], [-41.0096, -8.01158], [-41.0073, -8.01198], [-41.00768, -8.01619], [-41.01646, -8.01648], [-41.01797, -8.02129], [-41.02447, -8.01985], [-41.02304, -8.01367], [-41.0261, -8.01235], [-41.03348, -8.01812], [-41.04105, -8.0169], [-41.04024, -8.01531], [-41.04132, -8.01532], [-41.04101, -8.01377], [-41.03712, -8.01437], [-41.0361, -8.00921], [-41.03532, -8.00921], [-41.03529, -8.00671], [-41.02135, -8.0101], [-41.02027, -8.00846], [-41.01911, -8.00597], [-41.01513, -8.00654], [-41.01508, -8.00047], [-41.01495, -7.99965], [-41.01297, -7.99428], [-41.00789, -7.99228], [-41.00539, -7.99281], [-41.00508, -7.99097], [-41.00491, -7.98779], [-41.00359, -7.98808], [-41.00359, -7.98831]]]}}, {"type": "Feature", "properties": {"cd_quilomb": 124.0, "nm_comunid": "SERRA DOS CHAGAS", "nm_municip": "SALITRE", "cd_uf": "CE", "nr_area_ha": 2338.2893, "fase": "PORTARIA"}, "geometry": {"type": "Polygon", "coordinates": [[[-40.33869, -7.2445], [-40.33701, -7.2449], [-40.33561, -7.24546], [-40.33253, -7.24575], [-40.33207, -7.2505], [-40.33126, -7.25104], [-40.33933, -7.25402], [-40.33966, -7.26205], [-40.3402, -7.26765], [-40.34008, -7.27062], [-40.34204, -7.27071], [-40.34282, -7.27099], [-40.34365, -7.2707], [-40.34364, -7.27146], [-40.34406, -7.27321], [-40.34415, -7.27489], [-40.35451, -7.2733], [-40.35469, -7.27878], [-40.35585, -7.2789], [-40.35841, -7.28326], [-40.35873, -7.28489], [-40.35118, -7.2871], [-40.35193, -7.3011], [-40.34683, -7.30405], [-40.35465, -7.3169], [-40.35537, -7.32287], [-40.37014, -7.31869], [-40.36902, -7.3101], [-40.37746, -7.30814], [-40.37791, -7.30366], [-40.3767, -7.29993], [-40.38033, -7.30092], [-40.37932, -7.29366], [-40.38288, -7.29319], [-40.38564, -7.29349], [-40.38646, -7.29342], [-40.38709, -7.29367], [-40.38771, -7.29375], [-40.38808, -7.2936], [-40.38919, -7.29396], [-40.39371, -7.29454], [-40.39999, -7.29573], [-40.40013, -7.29535], [-40.40153, -7.29524], [-40.40161, -7.29497], [-40.40189, -7.29256], [-40.40144, -7.28844], [-40.3947, -7.2875], [-40.38465, -7.28784], [-40.38045, -7.28944], [-40.38058, -7.28774], [-40.3758, -7.28847], [-40.37505, -7.28769], [-40.38226, -7.28115], [-40.38238, -7.28024], [-40.3818, -7.27963], [-40.38083, -7.27922], [-40.37928, -7.27582], [-40.37853, -7.27509], [-40.3812, -7.27271], [-40.38163, -7.27131], [-40.3812, -7.27105], [-40.38182, -7.27005], [-40.37629, -7.26349], [-40.37781, -7.26171], [-40.34972, -7.24876], [-40.34497, -7.25115], [-40.3453, -7.25006], [-40.34535, -7.2491], [-40.3463, -7.24637], [-40.34554, -7.24641], [-40.34279, -7.2473], [-40.33869, -7.2445]]]}}, {"type": "Feature", "properties": {"cd_quilomb": 125.0, "nm_comunid": "SITIO ARRUDA", "nm_municip": "SALITRE", "cd_uf": "CE", "nr_area_ha": 334.3401, "fase": "CCDRU"}, "geometry": {"type": "Polygon", "coordinates": [[[-40.25818, -7.19807], [-40.25723, -7.19871], [-40.25791, -7.20766], [-40.25776, -7.20887], [-40.27302, -7.22125], [-40.27835, -7.2253], [-40.27721, -7.21491], [-40.27564, -7.21049], [-40.26622, -7.2107], [-40.26327, -7.20974], [-40.26373, -7.208], [-40.26599, -7.2087], [-40.26658, -7.20659], [-40.26656, -7.20595], [-40.26776, -7.20084], [-40.2657, -7.20028], [-40.26547, -7.19624], [-40.26546, -7.1907], [-40.26367, -7.19023], [-40.26236, -7.19217], [-40.26233, -7.19639], [-40.25818, -7.19807]]]}}, {"type": "Feature", "properties": {"cd_quilomb": null, "nm_comunid": "GURUTUBA", "nm_municip": "JAIBA/GAMALEIRA/MONTE AZUL", "cd_uf": "MG", "nr_area_ha": 45589.2093, "fase": "RTID"}, "geometry": {"type": "MultiPolygon", "coordinates": [[[[-43.3117, -15.32603], [-43.3125, -15.32572], [-43.31295, -15.32478], [-43.31311, -15.32484], [-43.31417, -15.3232], [-43.31386, -15.32239], [-43.31362, -15.32231], [-43.31312, -15.32138], [-43.31274, -15.32106], [-43.31266, -15.32067], [-43.3123, -15.3204], [-43.3124, -15.32005], [-43.31213, -15.31939], [-43.31179, -15.31942], [-43.31202, -15.31873], [-43.31193, -15.3182], [-43.31205, -15.31764], [-43.31169, -15.31671], [-43.31247, -15.31539], [-43.31243, -15.31496], [-43.31259, -15.31464], [-43.31357, -15.31351], [-43.31598, -15.30934], [-43.31476, -15.30867], [-43.31383, -15.30842], [-43.31229, -15.30839], [-43.31217, -15.3082], [-43.3123, -15.30794], [-43.31162, -15.3081], [-43.31133, -15.30746], [-43.31031, -15.30687], [-43.31001, -15.30716], [-43.30935, -15.30676], [-43.30938, -15.30631], [-43.30966, -15.30588], [-43.3093, -15.30568], [-43.3103, -15.30312], [-43.30992, -15.30158], [-43.31006, -15.30097], [-43.30913, -15.30035], [-43.30912, -15.30004], [-43.30864, -15.29969], [-43.30865, -15.29935], [-43.30892, -15.29921], [-43.30968, -15.29727], [-43.31019, -15.29349], [-43.31147, -15.29251], [-43.31409, -15.2926], [-43.32397, -15.29108], [-43.32364, -15.29099], [-43.32361, -15.29062], [-43.32337, -15.29037], [-43.32307, -15.29043], [-43.32292, -15.28993], [-43.32251, -15.29], [-43.32241, -15.28959], [-43.32213, -15.2894], [-43.32124, -15.28925], [-43.32025, -15.2881], [-43.32037, -15.28755], [-43.32024, -15.28725], [-43.31959, -15.28728], [-43.31958, -15.28688], [-43.31942, -15.28677], [-43.31862, -15.28733], [-43.31814, -15.28731], [-43.31804, -15.28673], [-43.31848, -15.28659], [-43.3179, -15.28584], [-43.31752, -15.28584], [-43.31692, -15.28534], [-43.31727, -15.28436], [-43.31681, -15.28345], [-43.31707, -15.28325], [-43.31727, -15.28334], [-43.31841, -15.28123], [-43.31822, -15.28005], [-43.318, -15.27985], [-43.31811, -15.27933], [-43.31801, -15.2787], [-43.31777, -15.27861], [-43.31757, -15.27825], [-43.31787, -15.27783], [-43.31777, -15.2772], [-43.3175, -15.27717], [-43.31763, -15.27634], [-43.31755, -15.27582], [-43.31957, -15.27396], [-43.31922, -15.27387], [-43.31889, -15.27409], [-43.31881, -15.27379], [-43.31964, -15.2735], [-43.32044, -15.27243], [-43.32114, -15.27252], [-43.32219, -15.27155], [-43.32216, -15.27103], [-43.32282, -15.27069], [-43.32068, -15.26679], [-43.31939, -15.26622], [-43.3193, -15.26578], [-43.31968, -15.26497], [-43.31928, -15.26424], [-43.32332, -15.2602], [-43.32291, -15.25525], [-43.32152, -15.25365], [-43.3212, -15.25256], [-43.31985, -15.25151], [-43.31926, -15.25147], [-43.31879, -15.25182], [-43.31829, -15.25149], [-43.31802, -15.25037], [-43.31736, -15.24891], [-43.31523, -15.24558], [-43.31475, -15.24533], [-43.31412, -15.24467], [-43.31378, -15.24336], [-43.31282, -15.24188], [-43.31258, -15.24216], [-43.3126, -15.24263], [-43.31225, -15.24262], [-43.31245, -15.24172], [-43.31225, -15.24099], [-43.31066, -15.23855], [-43.30987, -15.23832], [-43.30885, -15.2373], [-43.30865, -15.23672], [-43.30891, -15.23599], [-43.30958, -15.23582], [-43.30502, -15.23603], [-43.29436, -15.23521], [-43.28205, -15.23334], [-43.27555, -15.23226], [-43.27544, -15.23026], [-43.27551, -15.22149], [-43.27575, -15.21543], [-43.27625, -15.21553], [-43.27918, -15.2151], [-43.28027, -15.21508], [-43.30117, -15.22037], [-43.30133, -15.21984], [-43.30206, -15.22003], [-43.30199, -15.22026], [-43.30299, -15.22054], [-43.30292, -15.22083], [-43.31034, -15.22217], [-43.31069, -15.22189], [-43.31185, -15.21961], [-43.31098, -15.2187], [-43.31057, -15.21863], [-43.30977, -15.21908], [-43.30958, -15.21885], [-43.30964, -15.21861], [-43.30993, -15.2181], [-43.3108, -15.21807], [-43.31026, -15.21763], [-43.312, -15.21625], [-43.31184, -15.21603], [-43.31187, -15.21573], [-43.31207, -15.21556], [-43.31263, -15.21574], [-43.31422, -15.21447], [-43.3141, -15.21367], [-43.31421, -15.21338], [-43.31447, -15.21319], [-43.31463, -15.21332], [-43.31473, -15.21305], [-43.31444, -15.21262], [-43.3149, -15.21133], [-43.31534, -15.21109], [-43.3151, -15.2107], [-43.31487, -15.21081], [-43.31472, -15.21115], [-43.31452, -15.21114], [-43.31369, -15.21057], [-43.31352, -15.20942], [-43.31371, -15.20899], [-43.31548, -15.20681], [-43.31451, -15.20516], [-43.31432, -15.20443], [-43.31432, -15.2027], [-43.3155, -15.2012], [-43.31565, -15.19983], [-43.31634, -15.19887], [-43.31705, -15.19828], [-43.31829, -15.19763], [-43.3186, -15.19703], [-43.31779, -15.19627], [-43.31618, -15.19545], [-43.31553, -15.19496], [-43.31407, -15.19472], [-43.31378, -15.19423], [-43.31417, -15.19366], [-43.31581, -15.19323], [-43.31604, -15.19299], [-43.31597, -15.1925], [-43.31563, -15.19247], [-43.31513, -15.19187], [-43.31441, -15.19189], [-43.31446, -15.1912], [-43.31466, -15.19072], [-43.31553, -15.19042], [-43.31616, -15.18922], [-43.3162, -15.1886], [-43.31677, -15.18769], [-43.31685, -15.18631], [-43.31569, -15.18549], [-43.31504, -15.18535], [-43.31513, -15.18496], [-43.31582, -15.18459], [-43.31538, -15.18383], [-43.31432, -15.18346], [-43.31419, -15.18321], [-43.31491, -15.18316], [-43.31474, -15.18293], [-43.31461, -15.18176], [-43.31439, -15.18175], [-43.31439, -15.18107], [-43.31374, -15.18071], [-43.31428, -15.17986], [-43.31418, -15.17877], [-43.31369, -15.17748], [-43.31409, -15.176], [-43.31517, -15.1746], [-43.31552, -15.17324], [-43.31456, -15.17062], [-43.31343, -15.16887], [-43.31229, -15.16531], [-43.31241, -15.16472], [-43.31161, -15.16255], [-43.31507, -15.15909], [-43.31499, -15.15888], [-43.31554, -15.15802], [-43.316, -15.15762], [-43.31595, -15.15628], [-43.31654, -15.15553], [-43.31684, -15.15531], [-43.31737, -15.15531], [-43.31808, -15.1545], [-43.31989, -15.15057], [-43.31974, -15.15055], [-43.31965, -15.15028], [-43.32007, -15.14961], [-43.32032, -15.14963], [-43.32596, -15.14758], [-43.32753, -15.14406], [-43.33, -15.14356], [-43.33202, -15.1408], [-43.33155, -15.13714], [-43.32639, -15.13459], [-43.3243, -15.13613], [-43.32017, -15.12915], [-43.32091, -15.12595], [-43.32784, -15.12122], [-43.32662, -15.11556], [-43.32843, -15.11179], [-43.3317, -15.11172], [-43.33199, -15.10931], [-43.3305, -15.10631], [-43.32348, -15.10206], [-43.32124, -15.09739], [-43.32188, -15.09329], [-43.31296, -15.08855], [-43.31172, -15.08403], [-43.30862, -15.08358], [-43.30657, -15.08291], [-43.30523, -15.08312], [-43.30487, -15.08241], [-43.30355, -15.08221], [-43.30245, -15.0824], [-43.29948, -15.0862], [-43.29905, -15.08726], [-43.2974, -15.08903], [-43.29607, -15.08893], [-43.29521, -15.0891], [-43.29237, -15.09075], [-43.29191, -15.09123], [-43.29511, -15.09542], [-43.29652, -15.09607], [-43.29683, -15.09748], [-43.29658, -15.09877], [-43.29541, -15.10185], [-43.29457, -15.10207], [-43.29431, -15.10234], [-43.29337, -15.10346], [-43.29318, -15.10424], [-43.29292, -15.10456], [-43.29241, -15.10461], [-43.29051, -15.1071], [-43.29272, -15.11137], [-43.29351, -15.11701], [-43.29341, -15.11762], [-43.29392, -15.11831], [-43.29393, -15.11922], [-43.2927, -15.12013], [-43.29095, -15.12068], [-43.28923, -15.12073], [-43.28821, -15.12002], [-43.28743, -15.11979], [-43.28436, -15.11728], [-43.28335, -15.11684], [-43.28255, -15.11719], [-43.28178, -15.12012], [-43.28149, -15.12033], [-43.28054, -15.12044], [-43.27293, -15.12485], [-43.27279, -15.1251], [-43.27468, -15.12843], [-43.27444, -15.1285], [-43.27457, -15.12863], [-43.2745, -15.12898], [-43.27235, -15.12936], [-43.27211, -15.13137], [-43.27511, -15.13409], [-43.2752, -15.13709], [-43.27479, -15.13748], [-43.27475, -15.13799], [-43.27326, -15.13895], [-43.27202, -15.14024], [-43.27057, -15.14061], [-43.2701, -15.14047], [-43.26617, -15.14174], [-43.26565, -15.14216], [-43.26772, -15.1466], [-43.2684, -15.1476], [-43.26855, -15.14836], [-43.26988, -15.1512], [-43.26956, -15.15102], [-43.27071, -15.15298], [-43.26993, -15.15498], [-43.26812, -15.15734], [-43.26676, -15.15806], [-43.26627, -15.15864], [-43.26618, -15.15904], [-43.26647, -15.15937], [-43.26781, -15.15984], [-43.26813, -15.16014], [-43.26829, -15.16163], [-43.2676, -15.16226], [-43.2659, -15.16256], [-43.26478, -15.16388], [-43.26452, -15.16482], [-43.26382, -15.16608], [-43.26239, -15.16711], [-43.26169, -15.16722], [-43.26069, -15.16837], [-43.26058, -15.16933], [-43.26214, -15.17006], [-43.26245, -15.17043], [-43.2622, -15.1723], [-43.26289, -15.17308], [-43.26489, -15.17318], [-43.26534, -15.17348], [-43.26499, -15.17392], [-43.26539, -15.17606], [-43.2647, -15.17734], [-43.26343, -15.17716], [-43.26305, -15.17771], [-43.26258, -15.17919], [-43.26173, -15.18328], [-43.26203, -15.18423], [-43.26213, -15.18589], [-43.26141, -15.18675], [-43.261, -15.18772], [-43.26079, -15.18921], [-43.26181, -15.19009], [-43.26314, -15.19058], [-43.26587, -15.19099], [-43.26724, -15.19138], [-43.26824, -15.19215], [-43.26887, -15.19211], [-43.26967, -15.19231], [-43.27039, -15.19386], [-43.27115, -15.19465], [-43.27108, -15.19576], [-43.27084, -15.1962], [-43.27103, -15.19714], [-43.27025, -15.19728], [-43.26691, -15.19955], [-43.26668, -15.19991], [-43.26656, -15.20033], [-43.26664, -15.20124], [-43.26681, -15.20227], [-43.26748, -15.20419], [-43.26741, -15.20488], [-43.26498, -15.20445], [-43.26405, -15.20559], [-43.26301, -15.20633], [-43.26318, -15.20803], [-43.26349, -15.20823], [-43.26509, -15.20837], [-43.26568, -15.20867], [-43.26616, -15.20912], [-43.26624, -15.2094], [-43.26581, -15.21026], [-43.2651, -15.21068], [-43.26375, -15.21106], [-43.2633, -15.21136], [-43.26329, -15.21207], [-43.2627, -15.21289], [-43.26313, -15.21361], [-43.26277, -15.21413], [-43.26284, -15.21441], [-43.26363, -15.21517], [-43.26463, -15.21438], [-43.26475, -15.21511], [-43.26505, -15.21546], [-43.26497, -15.21658], [-43.26536, -15.2177], [-43.26493, -15.21775], [-43.26493, -15.21822], [-43.26464, -15.21864], [-43.26496, -15.21943], [-43.26478, -15.21968], [-43.26486, -15.21992], [-43.26461, -15.22023], [-43.26473, -15.22065], [-43.2646, -15.2208], [-43.26341, -15.22108], [-43.26316, -15.2214], [-43.26185, -15.22055], [-43.26138, -15.22041], [-43.26089, -15.22056], [-43.26059, -15.22088], [-43.26044, -15.22075], [-43.26049, -15.22045], [-43.25977, -15.2203], [-43.25961, -15.22036], [-43.25986, -15.22131], [-43.25979, -15.22142], [-43.2592, -15.22138], [-43.2591, -15.22089], [-43.25848, -15.22088], [-43.25786, -15.22048], [-43.25758, -15.21976], [-43.25732, -15.21959], [-43.25683, -15.21976], [-43.25607, -15.2205], [-43.25589, -15.22096], [-43.25603, -15.2215], [-43.25578, -15.22297], [-43.25626, -15.22335], [-43.255, -15.22729], [-43.25299, -15.2297], [-43.25335, -15.23069], [-43.25332, -15.23124], [-43.25304, -15.23184], [-43.2515, -15.23414], [-43.25101, -15.23526], [-43.25021, -15.23621], [-43.24973, -15.23648], [-43.25151, -15.24043], [-43.25178, -15.24063], [-43.25174, -15.24086], [-43.2525, -15.24087], [-43.25266, -15.24101], [-43.25278, -15.24165], [-43.25313, -15.24224], [-43.25272, -15.24292], [-43.25303, -15.24296], [-43.25335, -15.24272], [-43.25402, -15.2433], [-43.25384, -15.24421], [-43.2547, -15.24492], [-43.25491, -15.24762], [-43.25518, -15.24821], [-43.25629, -15.24954], [-43.25604, -15.25169], [-43.25558, -15.25204], [-43.25528, -15.25193], [-43.25508, -15.25212], [-43.25569, -15.25283], [-43.25538, -15.25376], [-43.25483, -15.25393], [-43.25388, -15.25464], [-43.25361, -15.25429], [-43.25299, -15.2539], [-43.25209, -15.25435], [-43.25215, -15.2552], [-43.25237, -15.25552], [-43.25226, -15.25622], [-43.25244, -15.25635], [-43.25237, -15.25661], [-43.252, -15.25685], [-43.25102, -15.25698], [-43.25011, -15.25824], [-43.24981, -15.25844], [-43.24939, -15.25827], [-43.24932, -15.25773], [-43.24905, -15.25768], [-43.24822, -15.25801], [-43.24483, -15.2582], [-43.24413, -15.25875], [-43.24366, -15.2589], [-43.24347, -15.2596], [-43.24256, -15.25975], [-43.24127, -15.26037], [-43.24042, -15.26036], [-43.23976, -15.26136], [-43.23941, -15.26163], [-43.23789, -15.26081], [-43.2375, -15.26008], [-43.23683, -15.25938], [-43.23594, -15.25909], [-43.2352, -15.25956], [-43.23095, -15.25972], [-43.22822, -15.26157], [-43.22785, -15.2621], [-43.22784, -15.26302], [-43.22746, -15.26322], [-43.22728, -15.26349], [-43.22737, -15.26382], [-43.22668, -15.26441], [-43.2266, -15.26604], [-43.22563, -15.26622], [-43.22553, -15.26671], [-43.22527, -15.26687], [-43.22387, -15.26718], [-43.22326, -15.26748], [-43.22334, -15.26794], [-43.22297, -15.26848], [-43.22238, -15.26875], [-43.22268, -15.26941], [-43.22268, -15.26978], [-43.22219, -15.27047], [-43.22142, -15.27052], [-43.22131, -15.27114], [-43.22087, -15.27116], [-43.2208, -15.26936], [-43.22141, -15.26853], [-43.22131, -15.26773], [-43.22057, -15.26736], [-43.21817, -15.26961], [-43.21679, -15.27159], [-43.21567, -15.27285], [-43.21379, -15.27446], [-43.21333, -15.27512], [-43.21319, -15.27588], [-43.21299, -15.27612], [-43.212, -15.27612], [-43.21008, -15.27668], [-43.20893, -15.27667], [-43.20846, -15.27714], [-43.20845, -15.27753], [-43.20897, -15.27825], [-43.20868, -15.27854], [-43.20823, -15.27843], [-43.20806, -15.27863], [-43.20817, -15.2792], [-43.20676, -15.27968], [-43.20654, -15.28018], [-43.20629, -15.28024], [-43.20542, -15.28222], [-43.2058, -15.28214], [-43.20606, -15.28228], [-43.20616, -15.28276], [-43.20607, -15.28338], [-43.20541, -15.28384], [-43.20521, -15.2837], [-43.2052, -15.28348], [-43.20469, -15.28386], [-43.20448, -15.28433], [-43.20468, -15.28455], [-43.2044, -15.28489], [-43.20463, -15.28504], [-43.20498, -15.28502], [-43.20488, -15.28554], [-43.20475, -15.28579], [-43.20451, -15.28552], [-43.20421, -15.28563], [-43.20421, -15.28621], [-43.20405, -15.28648], [-43.20365, -15.28665], [-43.20344, -15.28753], [-43.20411, -15.28806], [-43.20431, -15.28931], [-43.20469, -15.28894], [-43.20486, -15.28905], [-43.20495, -15.28956], [-43.20463, -15.28983], [-43.20458, -15.29014], [-43.20468, -15.29053], [-43.20501, -15.2909], [-43.20463, -15.29133], [-43.20573, -15.29184], [-43.2057, -15.29211], [-43.2054, -15.29226], [-43.20547, -15.29258], [-43.2053, -15.29318], [-43.20605, -15.29445], [-43.20536, -15.29489], [-43.20509, -15.29554], [-43.2047, -15.29565], [-43.20465, -15.29583], [-43.20508, -15.29621], [-43.20502, -15.29662], [-43.20462, -15.29672], [-43.20444, -15.29654], [-43.2042, -15.29685], [-43.2046, -15.29722], [-43.20508, -15.2971], [-43.20518, -15.29769], [-43.20578, -15.29774], [-43.20596, -15.2979], [-43.20573, -15.29891], [-43.20625, -15.3006], [-43.20469, -15.30136], [-43.20477, -15.3018], [-43.2046, -15.30226], [-43.20594, -15.30334], [-43.20627, -15.30323], [-43.20627, -15.30298], [-43.20666, -15.30279], [-43.20696, -15.30323], [-43.20699, -15.30414], [-43.20739, -15.30485], [-43.20797, -15.30502], [-43.20799, -15.30573], [-43.20754, -15.30626], [-43.20681, -15.30586], [-43.20652, -15.30595], [-43.20642, -15.30648], [-43.20612, -15.30668], [-43.20623, -15.30725], [-43.20582, -15.30787], [-43.20546, -15.30763], [-43.20525, -15.30685], [-43.20504, -15.30673], [-43.20477, -15.30686], [-43.20447, -15.30724], [-43.20456, -15.30871], [-43.20482, -15.30926], [-43.2048, -15.30979], [-43.20449, -15.30991], [-43.20295, -15.30968], [-43.20282, -15.30989], [-43.20229, -15.31009], [-43.20168, -15.30981], [-43.20128, -15.30982], [-43.1997, -15.31055], [-43.1996, -15.31075], [-43.1993, -15.31052], [-43.19886, -15.31059], [-43.19916, -15.31149], [-43.19963, -15.3119], [-43.20013, -15.31158], [-43.20076, -15.31215], [-43.20143, -15.31232], [-43.20197, -15.31313], [-43.20198, -15.31363], [-43.20155, -15.31432], [-43.20148, -15.31477], [-43.20086, -15.31556], [-43.20074, -15.31681], [-43.20223, -15.31851], [-43.20372, -15.31967], [-43.20543, -15.31984], [-43.20575, -15.31938], [-43.20608, -15.31953], [-43.20632, -15.31983], [-43.20616, -15.32045], [-43.20625, -15.3207], [-43.20671, -15.32077], [-43.20712, -15.32117], [-43.20729, -15.32162], [-43.20725, -15.32224], [-43.20701, -15.32261], [-43.2058, -15.32324], [-43.20577, -15.32356], [-43.20578, -15.32385], [-43.20601, -15.32415], [-43.20736, -15.32432], [-43.20726, -15.32469], [-43.20685, -15.3251], [-43.20665, -15.32583], [-43.20629, -15.3263], [-43.20618, -15.32683], [-43.2067, -15.32719], [-43.20686, -15.32757], [-43.20683, -15.32809], [-43.20633, -15.32843], [-43.20468, -15.32845], [-43.20422, -15.32859], [-43.20317, -15.32838], [-43.20303, -15.32806], [-43.20184, -15.32738], [-43.20149, -15.32766], [-43.20139, -15.32798], [-43.20109, -15.32805], [-43.20053, -15.32763], [-43.20034, -15.32769], [-43.20021, -15.32799], [-43.20054, -15.32869], [-43.20051, -15.329], [-43.20029, -15.32899], [-43.20012, -15.32866], [-43.19988, -15.32858], [-43.1995, -15.32886], [-43.19801, -15.32873], [-43.19741, -15.32854], [-43.19769, -15.32924], [-43.19663, -15.32881], [-43.19586, -15.32802], [-43.19534, -15.3271], [-43.19442, -15.32724], [-43.19393, -15.32777], [-43.1935, -15.32885], [-43.19305, -15.32857], [-43.19244, -15.32876], [-43.19202, -15.32908], [-43.19151, -15.32903], [-43.19183, -15.32977], [-43.19145, -15.33004], [-43.19114, -15.33054], [-43.19037, -15.33052], [-43.18962, -15.33092], [-43.18907, -15.33094], [-43.18862, -15.33132], [-43.18778, -15.33064], [-43.18749, -15.33083], [-43.18756, -15.33133], [-43.18705, -15.33152], [-43.18672, -15.33146], [-43.18612, -15.33179], [-43.18574, -15.33175], [-43.18562, -15.33198], [-43.18505, -15.33199], [-43.18394, -15.33248], [-43.18371, -15.33229], [-43.1831, -15.33294], [-43.1822, -15.3334], [-43.18217, -15.33395], [-43.18172, -15.33467], [-43.18045, -15.33482], [-43.1796, -15.33636], [-43.18015, -15.3369], [-43.17889, -15.33678], [-43.1782, -15.33705], [-43.17756, -15.33755], [-43.17714, -15.33862], [-43.17638, -15.3384], [-43.176, -15.33802], [-43.17656, -15.33763], [-43.17494, -15.33622], [-43.17388, -15.3364], [-43.17319, -15.33624], [-43.173, -15.3368], [-43.17255, -15.33694], [-43.17237, -15.3378], [-43.17279, -15.33837], [-43.17334, -15.3385], [-43.17282, -15.33888], [-43.17206, -15.33998], [-43.17108, -15.33938], [-43.17073, -15.33982], [-43.17071, -15.34056], [-43.1698, -15.34191], [-43.16895, -15.34182], [-43.16984, -15.34368], [-43.16983, -15.34445], [-43.16903, -15.34487], [-43.16856, -15.3454], [-43.16916, -15.34647], [-43.16885, -15.34757], [-43.16947, -15.34856], [-43.16928, -15.34943], [-43.16891, -15.35015], [-43.16819, -15.35073], [-43.16762, -15.3515], [-43.16771, -15.35221], [-43.16742, -15.35241], [-43.16717, -15.35211], [-43.16666, -15.3529], [-43.16678, -15.35351], [-43.16652, -15.35445], [-43.16585, -15.35409], [-43.16566, -15.35431], [-43.16593, -15.35451], [-43.16579, -15.35474], [-43.16539, -15.35474], [-43.16528, -15.35494], [-43.16537, -15.35521], [-43.16607, -15.35523], [-43.1655, -15.35586], [-43.16553, -15.35643], [-43.16454, -15.35724], [-43.16379, -15.35737], [-43.16315, -15.35836], [-43.16232, -15.3589], [-43.16284, -15.36043], [-43.16155, -15.36129], [-43.15974, -15.36122], [-43.15927, -15.35997], [-43.15833, -15.36001], [-43.15686, -15.36102], [-43.15672, -15.36129], [-43.15588, -15.36154], [-43.15554, -15.36126], [-43.15461, -15.36169], [-43.15384, -15.36118], [-43.15297, -15.36182], [-43.15261, -15.36238], [-43.15324, -15.36284], [-43.15296, -15.36322], [-43.15232, -15.36362], [-43.15217, -15.36412], [-43.15322, -15.36498], [-43.1529, -15.36535], [-43.1521, -15.36544], [-43.152, -15.36588], [-43.15297, -15.36719], [-43.1522, -15.36778], [-43.15224, -15.36845], [-43.15098, -15.37086], [-43.15045, -15.37114], [-43.15013, -15.37193], [-43.14913, -15.37251], [-43.14869, -15.37247], [-43.14687, -15.37567], [-43.14609, -15.37512], [-43.1453, -15.37585], [-43.14439, -15.37603], [-43.14352, -15.37559], [-43.14183, -15.37572], [-43.14116, -15.37619], [-43.14157, -15.37722], [-43.14097, -15.37739], [-43.14057, -15.37775], [-43.14026, -15.37766], [-43.13993, -15.37718], [-43.13964, -15.37812], [-43.13888, -15.378], [-43.13764, -15.37904], [-43.13719, -15.3785], [-43.13605, -15.37798], [-43.13521, -15.37803], [-43.13461, -15.37845], [-43.13415, -15.37835], [-43.134, -15.37878], [-43.13301, -15.37918], [-43.13254, -15.38004], [-43.13342, -15.38067], [-43.13346, -15.38144], [-43.13403, -15.3818], [-43.13224, -15.38542], [-43.13231, -15.38747], [-43.13148, -15.388], [-43.13103, -15.38889], [-43.13017, -15.38909], [-43.12971, -15.38974], [-43.1295, -15.39071], [-43.12868, -15.39122], [-43.12725, -15.39115], [-43.11763, -15.39322], [-43.11806, -15.39405], [-43.11809, -15.39445], [-43.1187, -15.39516], [-43.11814, -15.39494], [-43.11815, -15.39509], [-43.11911, -15.39613], [-43.11984, -15.39589], [-43.12046, -15.39636], [-43.12079, -15.39764], [-43.12106, -15.3999], [-43.11938, -15.39929], [-43.11903, -15.401], [-43.11828, -15.40125], [-43.11788, -15.40179], [-43.11839, -15.40253], [-43.11666, -15.40284], [-43.11569, -15.40364], [-43.11508, -15.40456], [-43.1151, -15.40567], [-43.11492, -15.40669], [-43.11408, -15.40725], [-43.11375, -15.40795], [-43.11154, -15.40905], [-43.11066, -15.41001], [-43.10897, -15.41094], [-43.10896, -15.41128], [-43.1093, -15.41167], [-43.10932, -15.41207], [-43.10888, -15.41231], [-43.10886, -15.41315], [-43.11115, -15.41543], [-43.10875, -15.41538], [-43.10739, -15.41614], [-43.10727, -15.41654], [-43.10746, -15.41761], [-43.10461, -15.41805], [-43.10469, -15.41853], [-43.10513, -15.41849], [-43.10519, -15.41879], [-43.10605, -15.4196], [-43.10631, -15.4207], [-43.10621, -15.4216], [-43.10688, -15.42271], [-43.10569, -15.41813], [-43.10764, -15.42448], [-43.10734, -15.42452], [-43.10731, -15.42437], [-43.10743, -15.42511], [-43.10892, -15.42712], [-43.12427, -15.4337], [-43.1409, -15.434], [-43.15286, -15.44426], [-43.16163, -15.43359], [-43.16721, -15.43448], [-43.16799, -15.42633], [-43.16926, -15.42519], [-43.17344, -15.42822], [-43.17916, -15.4138], [-43.25002, -15.42086], [-43.24023, -15.41717], [-43.23811, -15.40904], [-43.24428, -15.40227], [-43.25222, -15.40395], [-43.25396, -15.39122], [-43.25922, -15.38695], [-43.25394, -15.3819], [-43.25149, -15.37566], [-43.25239, -15.37379], [-43.26151, -15.37027], [-43.26466, -15.36526], [-43.26115, -15.3539], [-43.26335, -15.34827], [-43.25722, -15.34041], [-43.25752, -15.33689], [-43.26194, -15.33326], [-43.26216, -15.33047], [-43.31137, -15.32715], [-43.31139, -15.3265], [-43.3117, -15.32603]]], [[[-43.2482, -15.23777], [-43.24793, -15.23852], [-43.24787, -15.23899], [-43.24814, -15.23989], [-43.24858, -15.24009], [-43.24906, -15.23994], [-43.24926, -15.24008], [-43.25014, -15.23973], [-43.25051, -15.23989], [-43.25078, -15.24078], [-43.25106, -15.24081], [-43.25123, -15.24047], [-43.25147, -15.24043], [-43.24972, -15.23649], [-43.24897, -15.23692], [-43.2482, -15.23777]]], [[[-43.22858, -15.26036], [-43.22828, -15.2609], [-43.22822, -15.26157], [-43.23085, -15.25972], [-43.22858, -15.26036]]], [[[-43.20584, -15.27993], [-43.20567, -15.2801], [-43.20577, -15.28063], [-43.20605, -15.28002], [-43.20584, -15.27993]]], [[[-43.16651, -15.35217], [-43.16663, -15.35277], [-43.16703, -15.35195], [-43.16651, -15.35217]]], [[[-43.16213, -15.35773], [-43.16225, -15.35845], [-43.16344, -15.35743], [-43.16213, -15.35773]]], [[[-43.11945, -15.39209], [-43.11771, -15.39268], [-43.11759, -15.39313], [-43.1272, -15.39114], [-43.12616, -15.39109], [-43.11945, -15.39209]]], [[[-43.2475, -15.42807], [-43.24536, -15.43381], [-43.2504, -15.43423], [-43.2541, -15.42897], [-43.2475, -15.42807]]]]}}, {"type": "Feature", "properties": {"cd_quilomb": 0.0, "nm_comunid": "PAU D'ARCO E PARATECA", "nm_municip": "MALHADA", "cd_uf": "BA", "nr_area_ha": 41780.1, "fase": "TITULO PARCIAL"}, "geometry": {"type": "MultiPolygon", "coordinates": [[[[-43.59573, -14.28626], [-43.59589, -14.28673], [-43.59553, -14.28711], [-43.5958, -14.28739], [-43.59572, -14.28768], [-43.59528, -14.28768], [-43.59527, -14.28798], [-43.59487, -14.28785], [-43.59483, -14.2881], [-43.59438, -14.2882], [-43.59448, -14.28875], [-43.59412, -14.28892], [-43.59422, -14.28929], [-43.59346, -14.28989], [-43.59268, -14.29024], [-43.59269, -14.29073], [-43.59299, -14.29065], [-43.59304, -14.29092], [-43.59304, -14.29147], [-43.59284, -14.29193], [-43.59232, -14.29246], [-43.5917, -14.29255], [-43.58988, -14.29457], [-43.58927, -14.29413], [-43.58627, -14.29548], [-43.58412, -14.29564], [-43.58342, -14.29602], [-43.58225, -14.29734], [-43.57885, -14.30018], [-43.57751, -14.30037], [-43.57716, -14.30057], [-43.57713, -14.30124], [-43.5762, -14.30166], [-43.57624, -14.30219], [-43.5752, -14.30306], [-43.57531, -14.30391], [-43.57499, -14.30578], [-43.57447, -14.30627], [-43.58948, -14.33436], [-43.60203, -14.33121], [-43.64055, -14.32104], [-43.64915, -14.31857], [-43.59666, -14.28588], [-43.59605, -14.28583], [-43.59573, -14.28626]]], [[[-43.44886, -13.91796], [-43.44583, -13.90451], [-43.44258, -13.90541], [-43.44886, -13.91796]]]]}}, {"type": "Feature", "properties": {"cd_quilomb": 151.0, "nm_comunid": "LAGOAS", "nm_municip": "SAO RAIMUNDO NONATO", "cd_uf": "PI", "nr_area_ha": 62365.8449, "fase": "RTID"}, "geometry": {"type": "MultiPolygon", "coordinates": [[[[-42.72279, -9.34135], [-42.64595, -9.33216], [-42.65806, -9.34419], [-42.66841, -9.34192], [-42.66125, -9.36376], [-42.67252, -9.36219], [-42.67122, -9.36615], [-42.68505, -9.36568], [-42.6853, -9.36856], [-42.68903, -9.36843], [-42.68881, -9.37382], [-42.68866, -9.3739], [-42.69075, -9.37929], [-42.72279, -9.34135]]], [[[-42.85948, -9.27528], [-42.85667, -9.27251], [-42.86606, -9.29772], [-42.86563, -9.30677], [-42.87711, -9.29582], [-42.87514, -9.29014], [-42.85948, -9.27528]]], [[[-42.86382, -9.26332], [-42.85796, -9.25051], [-42.85313, -9.25146], [-42.85586, -9.25956], [-42.85238, -9.2606], [-42.85366, -9.26599], [-42.85126, -9.26717], [-42.83684, -9.2528], [-42.83483, -9.25049], [-42.81664, -9.22421], [-42.81211, -9.2181], [-42.81186, -9.21804], [-42.8197, -9.23188], [-42.84479, -9.26427], [-42.85476, -9.27063], [-42.85211, -9.26802], [-42.86382, -9.26332]]], [[[-42.80331, -9.18467], [-42.79856, -9.19455], [-42.80127, -9.19934], [-42.80616, -9.1847], [-42.80331, -9.18467]]], [[[-42.62066, -9.25588], [-42.60249, -9.29828], [-42.64397, -9.33019], [-42.66131, -9.31465], [-42.66267, -9.31035], [-42.66411, -9.3107], [-42.67638, -9.29892], [-42.68518, -9.29279], [-42.68498, -9.28962], [-42.68083, -9.2843], [-42.67713, -9.28318], [-42.67673, -9.28022], [-42.68315, -9.25651], [-42.67913, -9.23166], [-42.68374, -9.22884], [-42.68556, -9.22534], [-42.68521, -9.22229], [-42.68114, -9.21722], [-42.68358, -9.20175], [-42.68628, -9.1986], [-42.67923, -9.18734], [-42.67459, -9.16949], [-42.67366, -9.16036], [-42.65603, -9.22467], [-42.62066, -9.25588]]]]}}, {"type": "Feature", "properties": {"cd_quilomb": 85.0, "nm_comunid": "MATAO", "nm_municip": "MOGEIRO", "cd_uf": "PB", "nr_area_ha": 214.0022, "fase": "DECRETO"}, "geometry": {"type": "Polygon", "coordinates": [[[-35.49745, -7.2225], [-35.49614, -7.2252], [-35.49555, -7.22711], [-35.49552, -7.23119], [-35.49893, -7.23117], [-35.49847, -7.23641], [-35.50004, -7.23638], [-35.49998, -7.23576], [-35.50317, -7.23526], [-35.50341, -7.2356], [-35.50506, -7.23438], [-35.50517, -7.22983], [-35.50972, -7.22936], [-35.50979, -7.22691], [-35.50962, -7.22366], [-35.50991, -7.21955], [-35.50604, -7.21907], [-35.5005, -7.21936], [-35.49745, -7.2225]]]}}, {"type": "Feature", "properties": {"cd_quilomb": 73.0, "nm_comunid": "PEDRA DAGUA", "nm_municip": "INGA", "cd_uf": "PB", "nr_area_ha": 132.4001, "fase": "DECRETO"}, "geometry": {"type": "Polygon", "coordinates": [[[-35.63611, -7.18195], [-35.6361, -7.18275], [-35.63199, -7.18278], [-35.63201, -7.18354], [-35.63061, -7.18292], [-35.6306, -7.18239], [-35.628, -7.18209], [-35.62775, -7.18539], [-35.62417, -7.18477], [-35.62428, -7.19125], [-35.62626, -7.19133], [-35.62625, -7.18912], [-35.62801, -7.18891], [-35.63074, -7.18823], [-35.63073, -7.18797], [-35.6315, -7.18805], [-35.63153, -7.18891], [-35.63213, -7.18892], [-35.63214, -7.18934], [-35.63333, -7.18934], [-35.63329, -7.18824], [-35.6418, -7.18942], [-35.64173, -7.18357], [-35.63841, -7.18229], [-35.63611, -7.18195]]]}}, {"type": "Feature", "properties": {"cd_quilomb": 1.0, "nm_comunid": "BOA VISTA DOS NEGROS", "nm_municip": "PARELHAS", "cd_uf": "RN", "nr_area_ha": 445.2676, "fase": "CCDRU"}, "geometry": {"type": "Polygon", "coordinates": [[[-36.64684, -6.60727], [-36.6476, -6.60132], [-36.64605, -6.60158], [-36.64155, -6.60177], [-36.64171, -6.59964], [-36.64171, -6.59624], [-36.64076, -6.59422], [-36.63942, -6.59016], [-36.63901, -6.59054], [-36.63905, -6.59066], [-36.63675, -6.59239], [-36.63532, -6.59341], [-36.63479, -6.59348], [-36.63502, -6.59392], [-36.63491, -6.59427], [-36.6354, -6.59428], [-36.63566, -6.59466], [-36.63535, -6.59517], [-36.63361, -6.59583], [-36.6324, -6.59475], [-36.63204, -6.59582], [-36.63084, -6.59667], [-36.6302, -6.59655], [-36.63077, -6.59924], [-36.63172, -6.59911], [-36.63495, -6.59792], [-36.63529, -6.59817], [-36.63457, -6.61528], [-36.63372, -6.61796], [-36.63379, -6.61893], [-36.63446, -6.61925], [-36.63607, -6.61825], [-36.63704, -6.61949], [-36.63729, -6.62128], [-36.63795, -6.62156], [-36.63828, -6.62388], [-36.63858, -6.62402], [-36.63845, -6.62496], [-36.63993, -6.6243], [-36.6447, -6.62325], [-36.64565, -6.62356], [-36.64696, -6.62429], [-36.64756, -6.62443], [-36.64872, -6.62557], [-36.64978, -6.61742], [-36.64684, -6.60727]]]}}, {"type": "Feature", "properties": {"cd_quilomb": 17.0, "nm_comunid": "MACAMBIRA", "nm_municip": "LAGOA NOVA, SANTANA DO MATOS E BOD¿", "cd_uf": "RN", "nr_area_ha": 2589.1695, "fase": "DECRETO"}, "geometry": {"type": "Polygon", "coordinates": [[[-36.56723, -6.06884], [-36.56696, -6.06989], [-36.56945, -6.07053], [-36.56954, -6.0702], [-36.57268, -6.07005], [-36.57394, -6.06555], [-36.5474, -6.05595], [-36.54604, -6.0431], [-36.53748, -6.04703], [-36.53792, -6.04775], [-36.53765, -6.04962], [-36.52523, -6.09156], [-36.52369, -6.09731], [-36.52692, -6.1], [-36.52998, -6.10404], [-36.53109, -6.10503], [-36.53283, -6.09951], [-36.53408, -6.09961], [-36.53654, -6.09108], [-36.53887, -6.09174], [-36.5422, -6.08015], [-36.54374, -6.08058], [-36.54689, -6.06955], [-36.54846, -6.06821], [-36.55263, -6.06705], [-36.5477, -6.08487], [-36.54472, -6.08513], [-36.54469, -6.08718], [-36.54207, -6.08645], [-36.54133, -6.08899], [-36.54902, -6.09109], [-36.55014, -6.08748], [-36.55112, -6.08737], [-36.54998, -6.09134], [-36.55236, -6.0915], [-36.55492, -6.09103], [-36.55107, -6.10535], [-36.55201, -6.10547], [-36.55337, -6.10601], [-36.55593, -6.09686], [-36.55539, -6.09688], [-36.5547, -6.09745], [-36.55451, -6.09627], [-36.55534, -6.09596], [-36.55595, -6.09533], [-36.55635, -6.09536], [-36.56373, -6.06791], [-36.56723, -6.06884]]]}}, {"type": "Feature", "properties": {"cd_quilomb": 148.0, "nm_comunid": "CAPOEIRAS", "nm_municip": "MACAIBA", "cd_uf": "RN", "nr_area_ha": 906.7744, "fase": "DECRETO"}, "geometry": {"type": "Polygon", "coordinates": [[[-35.53872, -6.02721], [-35.5384, -6.02526], [-35.5375, -6.02297], [-35.5374, -6.02194], [-35.53778, -6.02042], [-35.5366, -6.01889], [-35.53614, -6.01724], [-35.53713, -6.01709], [-35.53709, -6.01678], [-35.53807, -6.0165], [-35.53783, -6.01578], [-35.53887, -6.01554], [-35.53793, -6.01485], [-35.53623, -6.00256], [-35.53604, -5.99594], [-35.53641, -5.99072], [-35.53317, -5.99034], [-35.53284, -5.99006], [-35.53256, -5.99008], [-35.53091, -5.99064], [-35.53115, -5.99193], [-35.53048, -5.99195], [-35.53034, -5.99105], [-35.52946, -5.99136], [-35.5295, -5.99217], [-35.52866, -5.9926], [-35.52829, -5.9915], [-35.52793, -5.9915], [-35.52783, -5.99094], [-35.52645, -5.99095], [-35.52522, -5.99032], [-35.52438, -5.99027], [-35.52419, -5.99008], [-35.52265, -5.99217], [-35.52005, -5.99225], [-35.51966, -5.99095], [-35.51924, -5.99097], [-35.51924, -5.9952], [-35.51905, -5.99847], [-35.51716, -6.00744], [-35.51737, -6.00744], [-35.51729, -6.00902], [-35.51671, -6.00949], [-35.51613, -6.01234], [-35.51553, -6.01594], [-35.51513, -6.01972], [-35.51829, -6.02301], [-35.51602, -6.02443], [-35.52076, -6.02777], [-35.52462, -6.03013], [-35.52698, -6.02876], [-35.5275, -6.02977], [-35.52931, -6.02892], [-35.52873, -6.02783], [-35.52994, -6.02719], [-35.53023, -6.02763], [-35.53133, -6.02723], [-35.53183, -6.02937], [-35.5324, -6.02927], [-35.53272, -6.03049], [-35.53225, -6.03075], [-35.53268, -6.03212], [-35.53319, -6.03197], [-35.53285, -6.03129], [-35.5401, -6.02877], [-35.53872, -6.02721]]]}}, {"type": "Feature", "properties": {"cd_quilomb": null, "nm_comunid": "SÍTIO PAVILHÃO", "nm_municip": "BOM JESUS", "cd_uf": "RN", "nr_area_ha": 52.1668, "fase": "PORTARIA"}, "geometry": {"type": "MultiPolygon", "coordinates": [[[[-35.5431, -5.96703], [-35.54214, -5.97835], [-35.53998, -5.98528], [-35.5397, -5.98844], [-35.5405, -5.98764], [-35.54299, -5.9812], [-35.54259, -5.98057], [-35.54266, -5.97947], [-35.54371, -5.97935], [-35.54382, -5.97906], [-35.54596, -5.9703], [-35.5431, -5.96703]]], [[[-35.5433, -5.98128], [-35.54308, -5.98127], [-35.54072, -5.98743], [-35.54212, -5.98603], [-35.5433, -5.98128]]]]}}, {"type": "Feature", "properties": {"cd_quilomb": null, "nm_comunid": "CÓRREGO DE UBARANAS", "nm_municip": "ARACATI", "cd_uf": "CE", "nr_area_ha": 1626.8176, "fase": "PORTARIA"}, "geometry": {"type": "Polygon", "coordinates": [[[-37.66862, -4.6006], [-37.66721, -4.60228], [-37.65728, -4.64462], [-37.66845, -4.645], [-37.6698, -4.64115], [-37.67899, -4.64269], [-37.68308, -4.62742], [-37.68702, -4.62559], [-37.68751, -4.62666], [-37.68184, -4.64386], [-37.68931, -4.64647], [-37.69557, -4.62054], [-37.70032, -4.60731], [-37.68879, -4.60606], [-37.68324, -4.60417], [-37.68607, -4.59367], [-37.67005, -4.59985], [-37.66862, -4.6006]]]}}]}